{
  "type": "FeatureCollection",
  "name": "chennai-stormwater-pumping-stations",
  "features": [
    {
      "type": "Feature",
      "geometry": { "type": "Point", "coordinates": [80.0211, 13.0117] },
      "properties": {
        "name": "Chembarambakkam Regulator Sluice Gates",
        "status": "operational"
      }
    },
    {
      "type": "Feature",
      "geometry": { "type": "Point", "coordinates": [80.2230, 13.0220] },
      "properties": {
        "name": "Saidapet Adyar Outfall Pumping Station",
        "status": "operational"
      }
    },
    {
      "type": "Feature",
      "geometry": { "type": "Point", "coordinates": [80.2400, 13.0200] },
      "properties": {
        "name": "Kotturpuram Sluice Gate Station",
        "status": "operational"
      }
    },
    {
      "type": "Feature",
      "geometry": { "type": "Point", "coordinates": [80.2550, 13.0950] },
      "properties": {
        "name": "Otteri Nullah Stormwater Pumping Station",
        "status": "operational"
      }
    },
    {
      "type": "Feature",
      "geometry": { "type": "Point", "coordinates": [80.2850, 13.0680] },
      "properties": {
        "name": "Napier Bridge Cooum Regulator Gate",
        "status": "operational"
      }
    },
    {
      "type": "Feature",
      "geometry": { "type": "Point", "coordinates": [80.2900, 13.1050] },
      "properties": {
        "name": "Royapuram Drainage Pumping Station",
        "status": "operational"
      }
    },
    {
      "type": "Feature",
      "geometry": { "type": "Point", "coordinates": [80.2211, 12.9789] },
      "properties": {
        "name": "Velachery Lake Surplus Pumping Station",
        "status": "operational"
      }
    },
    {
      "type": "Feature",
      "geometry": { "type": "Point", "coordinates": [80.1540, 13.1110] },
      "properties": {
        "name": "Ambattur OT Drainage Station",
        "status": "operational"
      }
    }
  ]
}
