{
 "nvdm": "1.0",
 "dataset": "geojson-layers/flood-2005-hotspots",
 "scope": {
  "kind": "region",
  "id": "mumbai"
 },
 "provenance": {
  "sources": [
   {
    "title": "Concerned Citizens' Commission, 'Mumbai Marooned' - enquiry into the 26 July 2005 deluge",
    "publisher": "Concerned Citizens' Commission",
    "license": "published civil-society report, cited with attribution",
    "closed": true,
    "as_of": "2005"
   },
   {
    "title": "Gupta, 'Urban floods: case study of Mumbai', Disaster & Development Vol 3(2)",
    "publisher": "National Institute of Disaster Management",
    "license": "GoI journal publication, cited with attribution",
    "closed": true,
    "as_of": "2009"
   },
   {
    "title": "Hallegatte et al., flood risks and climate change in Mumbai (OECD Environment Working Paper)",
    "publisher": "OECD",
    "license": "OECD working paper, cited with attribution",
    "closed": true,
    "as_of": "2010"
   }
  ],
  "method": "manual",
  "produced_at": "2026-07",
  "produced_by": "manual",
  "note": "26 July 2005 deluge reference layer (closed series), compiled from the CCC 'Mumbai Marooned' enquiry (the richest location-level record), NIDM and OECD studies, and press retrospectives. Depth labels only where the record documents one (11 of 35 points). COORDINATES ARE ESTIMATED LOCALITY CENTROIDS (+/- ~500 m) - no reviewed source publishes coordinates and no official 26/7 GIS inundation extent is public (see _provenance)."
 },
 "type": "FeatureCollection",
 "name": "mumbai-flood-2005-hotspots",
 "_provenance": "26 July 2005 deluge reference points, compiled 2026-07 from the Concerned Citizens' Commission report 'Mumbai Marooned' (2005, the richest location-level record), Gupta, Disaster & Development Vol 3(2) (NIDM 2009), Hallegatte et al (OECD 2010) and press retrospectives. Depth labels appear only where the record documents one (11 of 35 points). COORDINATES ARE ESTIMATED LOCALITY CENTROIDS (+/- ~500 m) - no reviewed source publishes coordinates, and no official GIS inundation extent for 26/7 is public (the Chitale Fact-Finding Committee map exists only as a report figure).",
 "features": [
  {
   "type": "Feature",
   "geometry": {
    "type": "Point",
    "coordinates": [
     72.887,
     19.103
    ]
   },
   "properties": {
    "name": "Saki Naka junction",
    "note": "Police station inundated, lockups evacuated; epicentre of the deluge on the upper Mithi.",
    "source": "CCC",
    "depth_documented": true,
    "depth_label": "10-11 ft (~3 m)"
   }
  },
  {
   "type": "Feature",
   "geometry": {
    "type": "Point",
    "coordinates": [
     72.857,
     19.082
    ]
   },
   "properties": {
    "name": "Vakola",
    "note": "Police station under 10-11 ft; Mithi-adjacent locality.",
    "source": "CCC",
    "depth_documented": true,
    "depth_label": "10-11 ft (~3 m)"
   }
  },
  {
   "type": "Feature",
   "geometry": {
    "type": "Point",
    "coordinates": [
     72.852,
     19.136
    ]
   },
   "properties": {
    "name": "Jogeshwari",
    "note": "Police station under 8 ft of water.",
    "source": "CCC",
    "depth_documented": true,
    "depth_label": "8 ft (~2.4 m)"
   }
  },
  {
   "type": "Feature",
   "geometry": {
    "type": "Point",
    "coordinates": [
     72.886,
     19.058
    ]
   },
   "properties": {
    "name": "Nehru Nagar, Kurla East",
    "note": "Police station under 8 ft; Mithi-backflow inundation zone.",
    "source": "CCC",
    "depth_documented": true,
    "depth_label": "8 ft (~2.4 m)"
   }
  },
  {
   "type": "Feature",
   "geometry": {
    "type": "Point",
    "coordinates": [
     72.866,
     19.089
    ]
   },
   "properties": {
    "name": "Santacruz airport (runway intersection)",
    "note": "Airport shut ~48 hours, 1,100+ flights cancelled; water through the international terminal.",
    "source": "CCC (AAI testimony)",
    "depth_documented": true,
    "depth_label": "up to 6 ft (~1.8 m)"
   }
  },
  {
   "type": "Feature",
   "geometry": {
    "type": "Point",
    "coordinates": [
     72.93,
     19.048
    ]
   },
   "properties": {
    "name": "Mankhurd",
    "note": "Severely flooded; a 264-ha de-reserved open space is part of the CCC's holding-pond critique.",
    "source": "CCC",
    "depth_documented": true,
    "depth_label": "up to 12 ft (~3.6 m)"
   }
  },
  {
   "type": "Feature",
   "geometry": {
    "type": "Point",
    "coordinates": [
     72.868,
     19.245
    ]
   },
   "properties": {
    "name": "Krishna Nagar / Shantivan, Dahisar",
    "note": "The Dahisar river - narrowed from >200 ft to 20-30 ft by encroachment - burst through the area.",
    "source": "CCC",
    "depth_documented": true,
    "depth_label": "5-6 ft in ground floors"
   }
  },
  {
   "type": "Feature",
   "geometry": {
    "type": "Point",
    "coordinates": [
     72.834,
     19.086
    ]
   },
   "properties": {
    "name": "Guzdar Bandh, Santacruz West",
    "note": "Chronic 'saucer' flooding after mangrove infill and the 2000 demolition of century-old sluice gates.",
    "source": "CCC",
    "depth_documented": true,
    "depth_label": "over 5 ft in ground floors"
   }
  },
  {
   "type": "Feature",
   "geometry": {
    "type": "Point",
    "coordinates": [
     72.837,
     19.187
    ]
   },
   "properties": {
    "name": "Evergreen Society, Link Road, Malad West",
    "note": "Debris-raised adjoining plot redirected floodwater through the compound wall.",
    "source": "CCC",
    "depth_documented": true,
    "depth_label": "~10 ft (~3 m)"
   }
  },
  {
   "type": "Feature",
   "geometry": {
    "type": "Point",
    "coordinates": [
     72.868,
     19.222
    ]
   },
   "properties": {
    "name": "Sanjay Gandhi National Park office",
    "note": "Flash flood inside the park; the Field Director's 2:30 pm warning call to Mantralaya went unheeded.",
    "source": "CCC",
    "depth_documented": true,
    "depth_label": "3 ft (~0.9 m)"
   }
  },
  {
   "type": "Feature",
   "geometry": {
    "type": "Point",
    "coordinates": [
     72.889,
     19.105
    ]
   },
   "properties": {
    "name": "Saki Naka landslide (Khadi No. 3)",
    "note": "Hillside collapsed onto hutments; 72 deaths per court record, over 100 per residents. Fire Brigade took ~15 hours.",
    "source": "CCC; Bombay HC via DNA",
    "depth_documented": false
   }
  },
  {
   "type": "Feature",
   "geometry": {
    "type": "Point",
    "coordinates": [
     72.863,
     19.077
    ]
   },
   "properties": {
    "name": "Kalina",
    "note": "Among the worst-hit; the local corporator testified to seeing 25-30 bodies on a single road; no power for a week.",
    "source": "CCC",
    "depth_documented": false
   }
  },
  {
   "type": "Feature",
   "geometry": {
    "type": "Point",
    "coordinates": [
     72.858,
     19.083
    ]
   },
   "properties": {
    "name": "Air India Colony, Kalina",
    "note": "Collapse of the airport extension wall caused 25 deaths (residents' association testimony).",
    "source": "CCC",
    "depth_documented": false
   }
  },
  {
   "type": "Feature",
   "geometry": {
    "type": "Point",
    "coordinates": [
     72.874,
     19.078
    ]
   },
   "properties": {
    "name": "Kranti Nagar, Kurla",
    "note": "Submerged; CCC tied its annual flooding to the airport built across the Mithi's course.",
    "source": "CCC",
    "depth_documented": false
   }
  },
  {
   "type": "Feature",
   "geometry": {
    "type": "Point",
    "coordinates": [
     72.875,
     19.072
    ]
   },
   "properties": {
    "name": "Bail Bazaar, Kurla West",
    "note": "Flooded; sits on the Mithi's four forced right-angle turns near the airport.",
    "source": "CCC",
    "depth_documented": false
   }
  },
  {
   "type": "Feature",
   "geometry": {
    "type": "Point",
    "coordinates": [
     72.877,
     19.086
    ]
   },
   "properties": {
    "name": "Jari-Mari",
    "note": "Mithi-bank slum devastated; residents on rooftops from 3:30 pm to 7 am.",
    "source": "CCC",
    "depth_documented": false
   }
  },
  {
   "type": "Feature",
   "geometry": {
    "type": "Point",
    "coordinates": [
     72.879,
     19.065
    ]
   },
   "properties": {
    "name": "Kurla West",
    "note": "Among the worst-hit; Constable Pradeep Nimbalkar drowned here after rescuing two men; ~5 days without power.",
    "source": "CCC; The Week",
    "depth_documented": false
   }
  },
  {
   "type": "Feature",
   "geometry": {
    "type": "Point",
    "coordinates": [
     72.861,
     19.063
    ]
   },
   "properties": {
    "name": "Bandra-Kurla Complex / Kalanagar",
    "note": "Inundated; CCC indicts BKC's G-Block, built on the Mithi's mouth, as a major cause of upstream flooding.",
    "source": "CCC; The Week",
    "depth_documented": false
   }
  },
  {
   "type": "Feature",
   "geometry": {
    "type": "Point",
    "coordinates": [
     72.852,
     19.04
    ]
   },
   "properties": {
    "name": "Dharavi",
    "note": "Heavily inundated by the blocked Mithi mouth.",
    "source": "CCC",
    "depth_documented": false
   }
  },
  {
   "type": "Feature",
   "geometry": {
    "type": "Point",
    "coordinates": [
     72.84,
     19.035
    ]
   },
   "properties": {
    "name": "Mahim",
    "note": "Floodwater flowed just below the railway bridge at the Mithi's mouth.",
    "source": "CCC",
    "depth_documented": false
   }
  },
  {
   "type": "Feature",
   "geometry": {
    "type": "Point",
    "coordinates": [
     72.843,
     19.059
    ]
   },
   "properties": {
    "name": "Bandra East",
    "note": "Worst-affected list; reclamation-linked drainage failure.",
    "source": "CCC",
    "depth_documented": false
   }
  },
  {
   "type": "Feature",
   "geometry": {
    "type": "Point",
    "coordinates": [
     72.826,
     19.055
    ]
   },
   "properties": {
    "name": "Bandra West",
    "note": "Worst-affected list (CCC public hearing held).",
    "source": "CCC",
    "depth_documented": false
   }
  },
  {
   "type": "Feature",
   "geometry": {
    "type": "Point",
    "coordinates": [
     72.857,
     19.027
    ]
   },
   "properties": {
    "name": "King's Circle, Matunga",
    "note": "In the CCC's Mithi-mouth inundation list; long-standing chronic flood spot.",
    "source": "CCC",
    "depth_documented": false
   }
  },
  {
   "type": "Feature",
   "geometry": {
    "type": "Point",
    "coordinates": [
     72.848,
     19.018
    ]
   },
   "properties": {
    "name": "Dadar TT",
    "note": "In the CCC's Mithi-mouth inundation list.",
    "source": "CCC",
    "depth_documented": false
   }
  },
  {
   "type": "Feature",
   "geometry": {
    "type": "Point",
    "coordinates": [
     72.909,
     19.086
    ]
   },
   "properties": {
    "name": "Ghatkopar",
    "note": "Inundated; parts without power for a week to 10 days.",
    "source": "CCC",
    "depth_documented": false
   }
  },
  {
   "type": "Feature",
   "geometry": {
    "type": "Point",
    "coordinates": [
     72.9,
     19.062
    ]
   },
   "properties": {
    "name": "Chembur",
    "note": "Flooded within hours (CCC public hearing held).",
    "source": "CCC",
    "depth_documented": false
   }
  },
  {
   "type": "Feature",
   "geometry": {
    "type": "Point",
    "coordinates": [
     72.916,
     19.055
    ]
   },
   "properties": {
    "name": "Govandi",
    "note": "Flooded within hours; a 5-year-old swept away, body never found (CCC hearing testimony).",
    "source": "CCC",
    "depth_documented": false
   }
  },
  {
   "type": "Feature",
   "geometry": {
    "type": "Point",
    "coordinates": [
     72.845,
     19.128
    ]
   },
   "properties": {
    "name": "Andheri / Amboli",
    "note": "Flooded within hours; six schoolboys swept into a nallah near Andheri station, one body recovered.",
    "source": "CCC",
    "depth_documented": false
   }
  },
  {
   "type": "Feature",
   "geometry": {
    "type": "Point",
    "coordinates": [
     72.84,
     19.081
    ]
   },
   "properties": {
    "name": "Milan Subway",
    "note": "Chronic below-grade flood spot; on BMC's post-2005 list of the 60 most flood-prone localities.",
    "source": "Newslaundry",
    "depth_documented": false
   }
  },
  {
   "type": "Feature",
   "geometry": {
    "type": "Point",
    "coordinates": [
     72.842,
     19.186
    ]
   },
   "properties": {
    "name": "Malad / Malad Subway",
    "note": "Subway logged flooded at 3:00 pm; Malad-Marve saw unprecedented flooding after mangrove infill.",
    "source": "CCC (BEST log)",
    "depth_documented": false
   }
  },
  {
   "type": "Feature",
   "geometry": {
    "type": "Point",
    "coordinates": [
     72.859,
     19.249
    ]
   },
   "properties": {
    "name": "Dahisar Subway",
    "note": "Logged flooded at 3:06 pm on the 26th.",
    "source": "CCC (BEST log)",
    "depth_documented": false
   }
  },
  {
   "type": "Feature",
   "geometry": {
    "type": "Point",
    "coordinates": [
     72.87,
     19.212
    ]
   },
   "properties": {
    "name": "Damunagar / Barkya Compound, Kandivli East",
    "note": "A debris-blocked 15-ft nallah changed course into the compound.",
    "source": "CCC",
    "depth_documented": false
   }
  },
  {
   "type": "Feature",
   "geometry": {
    "type": "Point",
    "coordinates": [
     72.905,
     19.119
    ]
   },
   "properties": {
    "name": "Powai (Hiranandani / lake)",
    "note": "Deluge triggered a massive landslide into Powai lake; the complex had almost no power for 8 days.",
    "source": "CCC",
    "depth_documented": false
   }
  },
  {
   "type": "Feature",
   "geometry": {
    "type": "Point",
    "coordinates": [
     73.24,
     19.16
    ]
   },
   "properties": {
    "name": "Badlapur barrage, Ulhas river",
    "note": "The Ulhas barrage overflowed on the 26th evening and was completely washed away by the 27th morning.",
    "source": "CCC (Relief Secretary testimony)",
    "depth_documented": false
   }
  },
  {
   "type": "Feature",
   "geometry": {
    "type": "Point",
    "coordinates": [
     73.135,
     19.243
    ]
   },
   "properties": {
    "name": "Kalyan",
    "note": "Kalyan-Mumbra-Panvel needed volunteer rescue missions for ~10 days.",
    "source": "CCC",
    "depth_documented": false
   }
  }
 ]
}