<?xml version="1.0" encoding="utf-8" ?>
<kml xmlns="http://www.opengis.net/kml/2.2">
<Document id="root_doc">
<Schema name="IFC_Drains" id="IFC_Drains">
	<SimpleField name="objectid" type="int"></SimpleField>
	<SimpleField name="left_fid" type="int"></SimpleField>
	<SimpleField name="right_fid" type="int"></SimpleField>
	<SimpleField name="shape_leng" type="float"></SimpleField>
	<SimpleField name="problem" type="int"></SimpleField>
	<SimpleField name="subdiv" type="string"></SimpleField>
	<SimpleField name="cross_sect" type="string"></SimpleField>
	<SimpleField name="depart" type="string"></SimpleField>
	<SimpleField name="validated" type="string"></SimpleField>
	<SimpleField name="val_by" type="string"></SimpleField>
	<SimpleField name="phone_no" type="float"></SimpleField>
	<SimpleField name="div" type="string"></SimpleField>
	<SimpleField name="comment" type="string"></SimpleField>
	<SimpleField name="seg_add" type="string"></SimpleField>
	<SimpleField name="l_sec_val" type="string"></SimpleField>
	<SimpleField name="start" type="string"></SimpleField>
	<SimpleField name="end_" type="string"></SimpleField>
	<SimpleField name="type" type="string"></SimpleField>
	<SimpleField name="drain_type" type="string"></SimpleField>
	<SimpleField name="cov_open" type="string"></SimpleField>
	<SimpleField name="date" type="string"></SimpleField>
	<SimpleField name="drain_name" type="string"></SimpleField>
	<SimpleField name="user_" type="string"></SimpleField>
	<SimpleField name="date_new" type="string"></SimpleField>
	<SimpleField name="remarks" type="string"></SimpleField>
	<SimpleField name="agency_new" type="string"></SimpleField>
	<SimpleField name="maintained" type="string"></SimpleField>
	<SimpleField name="shape_Length" type="float"></SimpleField>
</Schema>
<Folder><name>IFC_Drains</name>
  <Placemark>
	<name>5/2</name>
	<Style><LineStyle><color>ff0000ff</color></LineStyle><PolyStyle><fill>0</fill></PolyStyle></Style>
	<ExtendedData><SchemaData schemaUrl="#IFC_Drains">
		<SimpleData name="objectid">1</SimpleData>
		<SimpleData name="left_fid">0</SimpleData>
		<SimpleData name="right_fid">0</SimpleData>
		<SimpleData name="shape_leng">3160.78891486</SimpleData>
		<SimpleData name="problem">0</SimpleData>
		<SimpleData name="subdiv">CD 5</SimpleData>
		<SimpleData name="cross_sect">Y</SimpleData>
		<SimpleData name="depart">I&amp;FC</SimpleData>
		<SimpleData name="validated"></SimpleData>
		<SimpleData name="val_by"></SimpleData>
		<SimpleData name="phone_no">0</SimpleData>
		<SimpleData name="div"></SimpleData>
		<SimpleData name="comment"></SimpleData>
		<SimpleData name="seg_add"></SimpleData>
		<SimpleData name="l_sec_val"></SimpleData>
		<SimpleData name="start"></SimpleData>
		<SimpleData name="end_"></SimpleData>
		<SimpleData name="type"></SimpleData>
		<SimpleData name="drain_type"></SimpleData>
		<SimpleData name="cov_open"></SimpleData>
		<SimpleData name="drain_name">Asola Drain</SimpleData>
		<SimpleData name="user_">Preeti</SimpleData>
		<SimpleData name="date_new"></SimpleData>
		<SimpleData name="remarks"></SimpleData>
		<SimpleData name="agency_new"></SimpleData>
		<SimpleData name="maintained"></SimpleData>
		<SimpleData name="shape_Length">0.0307477509926612</SimpleData>
	</SchemaData></ExtendedData>
      <MultiGeometry><LineString><coordinates>77.1946804206659,28.4448335431344,-3.9897420038E-05 77.1946748088963,28.4450160731341,-3.9897420038E-05 77.1946478813956,28.4452265882373,-3.9897420038E-05 77.1942552301957,28.4455978004989,-3.9897420038E-05 77.1942282343465,28.4456535206943,-3.9897420038E-05 77.1941885598551,28.4457011523871,-3.9897420038E-05 77.1940745357122,28.44578315437,-3.9897420038E-05 77.1939816870062,28.4458248820136,-3.9897420038E-05 77.1939840162503,28.4458289307614,-3.9897420038E-05 77.1939579476022,28.445841948448,-3.9897420038E-05 77.1938631635551,28.4458716791356,-3.9897420038E-05 77.1937683759108,28.4459051357143,-3.9897420038E-05 77.19371968032,28.4459265593641,-3.9897420038E-05 77.1936418583861,28.4459550822621,-3.9897420038E-05 77.1935786036706,28.4459727620342,-3.9897420038E-05 77.1934907282155,28.4460037409808,-3.9897420038E-05 77.193440757386,28.446028204339,-3.9897420038E-05 77.193377553932,28.4460610143053,-3.9897420038E-05 77.1933728918465,28.446061675307,-3.9897420038E-05 77.1933413778033,28.446084565751,-3.9897420038E-05 77.1933188443901,28.4460974161637,-3.9897420038E-05 77.1933165079515,28.4460974305529,-3.9897420038E-05 77.1933117469405,28.4461020980343,-3.9897420038E-05 77.1933087710839,28.4461044443655,-3.9897420038E-05 77.1933037052028,28.4461079778018,-3.9897420038E-05 77.1933007086618,28.4461103394215,-3.9897420038E-05 77.1932977049261,28.4461127064371,-3.9897420038E-05 77.1932929915793,28.4461127361147,-3.9897420038E-05 77.1932876136335,28.4461151247141,-3.9897420038E-05 77.1932810395893,28.4461175286019,-3.9897420038E-05 77.1932770672838,28.4461211061051,-3.9897420038E-05 77.1932723305546,28.446121136682,-3.9897420038E-05 77.193261912808,28.4461223939342,-3.9897420038E-05 77.1932559853764,28.4461224326051,-3.9897420038E-05 77.1932488708397,28.4461224802691,-3.9897420038E-05 77.193239153665,28.4461213570159,-3.9897420038E-05 77.1932332271327,28.4461213965861,-3.9897420038E-05 77.1932320409269,28.44612140468,-3.9897420038E-05 77.1932249263902,28.446121452344,-3.9897420038E-05 77.1932114554453,28.4461191698647,-3.9897420038E-05 77.1932031600987,28.4461192247233,-3.9897420038E-05 77.1931901199291,28.4461193110582,-3.9897420038E-05 77.1931804414252,28.4461181896036,-3.9897420038E-05 77.1931768846065,28.4461182138853,-3.9897420038E-05 77.1931685856627,28.4461182678447,-3.9897420038E-05 77.1931660315881,28.4461171023233,-3.9897420038E-05 77.1931585654164,28.4461147901663,-3.9897420038E-05 77.1931536542187,28.44611364443,-3.9897420038E-05 77.1931460441556,28.4461101658524,-3.9897420038E-05 77.1931413182182,28.4461101964293,-3.9897420038E-05 77.1931294813415,28.4461102386974,-3.9897420038E-05 77.1931225151929,28.4461114069168,-3.9897420038E-05 77.193116877343,28.4461137460534,-3.9897420038E-05 77.1931110803131,28.44611491787,-3.9897420038E-05 77.1931043677733,28.4461184414138,-3.9897420038E-05 77.1931000177526,28.4461219757495,-3.9897420038E-05 77.1930956524434,28.4461255253736,-3.9897420038E-05 77.1930879407568,28.446131468993,-3.9897420038E-05 77.193082459389,28.4461362488897,-3.9897420038E-05 77.1930793612245,28.4461410539673,-3.9897420038E-05 77.1930762477716,28.4461458806288,-3.9897420038E-05 77.1930698517932,28.4461543882153,-3.9897420038E-05 77.193066572865,28.4461580556506,-3.9897420038E-05 77.1930632813463,28.4461617383744,-3.9897420038E-05 77.1930611976172,28.4461654327894,-3.9897420038E-05 77.1930532197313,28.4461716237223,-3.9897420038E-05 77.1930440718274,28.4461791042831,-3.9897420038E-05 77.1930395779152,28.4461841207015,-3.9897420038E-05 77.1930341316208,28.4461929628358,-3.9897420038E-05 77.1930330982998,28.4461955034206,-3.9897420038E-05 77.1930284398116,28.4461993264387,-3.9897420038E-05 77.1930275926503,28.4462044453797,-3.9897420038E-05 77.1930208828085,28.4462147633016,-3.9897420038E-05 77.1930175022569,28.4462199622823,-3.9897420038E-05 77.1929779923415,28.4462317586896,-3.9897420038E-05 77.1928949408498,28.4462477072668,-3.9897420038E-05 77.1928411074321,28.4462708567156,-3.9897420038E-05 77.192838912187,28.4462721220617,-3.9897420038E-05 77.1928320359706,28.4462746563512,-3.9897420038E-05 77.192827622098,28.4462771960366,-3.9897420038E-05 77.1928175191142,28.446282296092,-3.9897420038E-05 77.19280410033,28.4462835767266,-3.9897420038E-05 77.1927839276372,28.4462887100568,-3.9897420038E-05 77.1927663881593,28.4462951626925,-3.9897420038E-05 77.1927613834321,28.4462951635918,-3.9897420038E-05 77.1927555819055,28.4462977563373,-3.9897420038E-05 77.1927470347488,28.4462990558576,-3.9897420038E-05 77.1927422395637,28.4463003562773,-3.9897420038E-05 77.1927338875598,28.4463029634119,-3.9897420038E-05 77.1927253053295,28.4463042692275,-3.9897420038E-05 77.1927204840641,28.4463055759425,-3.9897420038E-05 77.1927167114081,28.4463055759425,-3.9897420038E-05 77.1927095635965,28.4463081956676,-3.9897420038E-05 77.1927059833954,28.4463095077784,-3.9897420038E-05 77.1926962851065,28.4463121382954,-3.9897420038E-05 77.1926914269687,28.4463134549029,-3.9897420038E-05 77.1926867477961,28.4463160944131,-3.9897420038E-05 77.1926804282601,28.4463160953125,-3.9897420038E-05 77.1926769937492,28.4463187411179,-3.9897420038E-05 77.192673373978,28.4463200667186,-3.9897420038E-05 77.1926659473766,28.4463213950173,-3.9897420038E-05 77.1926601170717,28.4463253871078,-3.9897420038E-05 77.1926515564252,28.446328057195,-3.9897420038E-05 77.1926445641963,28.4463334180537,-3.9897420038E-05 77.1926397780043,28.4463361088252,-3.9897420038E-05 77.1926303198344,28.4463428672304,-3.9897420038E-05 77.1926229292058,28.446345583183,-3.9897420038E-05 77.1926182311474,28.4463496688031,-3.9897420038E-05 77.19261580028,28.4463510267793,-3.9897420038E-05 77.1926082198944,28.4463523838563,-3.9897420038E-05 77.1926017888425,28.4463523838563,-3.9897420038E-05 77.1925966429217,28.4463523847556,-3.9897420038E-05 77.1925863528788,28.446352385655,-3.9897420038E-05 77.1925773479672,28.4463523865543,-3.9897420038E-05 77.1925683439549,28.4463523883529,-3.9897420038E-05 77.1925631989334,28.4463523892522,-3.9897420038E-05 77.1925580530127,28.4463523892522,-3.9897420038E-05 77.1925516219608,28.4463523901516,-3.9897420038E-05 77.1925387580582,28.4463523910509,-3.9897420038E-05 77.1925309564394,28.4463510366719,-3.9897420038E-05 77.1925231629146,28.4463496795949,-3.9897420038E-05 77.1925165852732,28.4463469546491,-3.9897420038E-05 77.1925075326974,28.4463455957735,-3.9897420038E-05 77.1924984270618,28.4463428816196,-3.9897420038E-05 77.192485450744,28.4463388238785,-3.9897420038E-05 77.1924789558401,28.4463361268117,-3.9897420038E-05 77.1924699293447,28.4463334378387,-3.9897420038E-05 77.1924609253324,28.4463307551611,-3.9897420038E-05 77.1924557578279,28.4463280787787,-3.9897420038E-05 77.1924480974027,28.4463267441848,-3.9897420038E-05 77.1924429856562,28.4463254113895,-3.9897420038E-05 77.1924340751734,28.4463240785942,-3.9897420038E-05 77.1924264606137,28.4463240803929,-3.9897420038E-05 77.1924213695515,28.4463227502956,-3.9897420038E-05 77.192413761287,28.4463227511949,-3.9897420038E-05 77.1924074201673,28.4463227520942,-3.9897420038E-05 77.1923985429594,28.4463254158861,-3.9897420038E-05 77.1923896432684,28.4463280859733,-3.9897420038E-05 77.1923845297233,28.4463321041442,-3.9897420038E-05 77.1923819819439,28.4463321050435,-3.9897420038E-05 77.1923768863852,28.4463321050435,-3.9897420038E-05 77.1923717386658,28.4463361394022,-3.9897420038E-05 77.1923665711613,28.44634018815,-3.9897420038E-05 77.1923587677439,28.4463469726356,-3.9897420038E-05 77.192353576857,28.44634969938,-3.9897420038E-05 77.1923404719362,28.4463592178045,-3.9897420038E-05 77.1923338969927,28.4463633223103,-3.9897420038E-05 77.1923272501035,28.4463688180674,-3.9897420038E-05 77.1923178665772,28.4463771161119,-3.9897420038E-05 77.1923125515839,28.4463798959163,-3.9897420038E-05 77.1923084111053,28.4463854780083,-3.9897420038E-05 77.1922975706773,28.4463939037565,-3.9897420038E-05 77.1922637399806,28.4464109567012,-3.9897420038E-05 77.1922035501547,28.4463944010816,-3.9897420038E-05 77.1921436148369,28.4463656749368,-3.9897420038E-05 77.1921360812162,28.4463618177446,-3.9897420038E-05 77.1921310728917,28.4463605362106,-3.9897420038E-05 77.192070336278,28.4463414256172,-3.9897420038E-05 77.1920304882174,28.4463494430732,-3.9897420038E-05 77.1919721348071,28.4463748597129,-3.9897420038E-05 77.1919138047792,28.4464046794333,-3.9897420038E-05 77.1918679690325,28.446411000768,-3.9897420038E-05 77.191812684109,28.4464059483767,-3.9897420038E-05 77.1917438473017,28.4463852711642,-3.9897420038E-05 77.1916787660632,28.4464216946064,-3.9897420038E-05 77.1916286522415,28.4464608178134,-3.9897420038E-05 77.1915732558021,28.4465270672712,-3.9897420038E-05 77.1915731056153,28.4465289477536,-3.9897420038E-05 77.1915461547322,28.4465984527573,-3.9897420038E-05 77.1914994979045,28.4466727772278,-3.9897420038E-05 77.1914986255621,28.4466811921841,-3.9897420038E-05 77.1914028513615,28.4467499651396,-3.9897420038E-05 77.1913142672406,28.4468064650472,-3.9897420038E-05 77.19130804663,28.4468127899792,-3.9897420038E-05 77.191234027929,28.4469127541212,-3.9897420038E-05 77.1912296446334,28.4469172453355,-3.9897420038E-05 77.191038662805,28.4470074599272,-3.9897420038E-05 77.190935640968,28.4470663951989,-3.9897420038E-05 77.1909243436845,28.4470770009037,-3.9897420038E-05 77.1909169890288,28.4470855147856,-3.9897420038E-05 77.1909136192691,28.4470919035694,-3.9897420038E-05 77.1909058850995,28.4470983678962,-3.9897420038E-05 77.1908981203529,28.4471048583034,-3.9897420038E-05 77.1908906352955,28.4471135151775,-3.9897420038E-05 77.190884995647,28.4471200370609,-3.9897420038E-05 77.1908733512252,28.4471309899042,-3.9897420038E-05 77.1908692530146,28.4471332103303,-3.9897420038E-05 77.1908594243239,28.4471420407734,-3.9897420038E-05 77.1908517558049,28.4471508910017,-3.9897420038E-05 77.1908396095613,28.4471598428534,-3.9897420038E-05 77.1908315696222,28.4471665751782,-3.9897420038E-05 77.1908257267269,28.4471733039057,-3.9897420038E-05 77.1908114643786,28.4471846371621,-3.9897420038E-05 77.1908055486381,28.4471914378354,-3.9897420038E-05 77.1907956399078,28.4472028322458,-3.9897420038E-05 77.1907876647199,28.4472120017334,-3.9897420038E-05 77.1907819081595,28.4472211892074,-3.9897420038E-05 77.1907743520557,28.4472350450621,-3.9897420038E-05 77.1907703042071,28.4472397089463,-3.9897420038E-05 77.1907624198508,28.4472513911397,-3.9897420038E-05 77.1907544833337,28.4472631506748,-3.9897420038E-05 77.1907460261092,28.4472702966877,-3.9897420038E-05 77.1907336145657,28.4472846102974,-3.9897420038E-05 77.1907294552012,28.4472894063819,-3.9897420038E-05 77.1907255062781,28.447296591965,-3.9897420038E-05 77.190708700647,28.4473159867443,-3.9897420038E-05 77.1906978979906,28.4473257992471,-3.9897420038E-05 77.1906940488922,28.4473355577907,-3.9897420038E-05 77.1906897762132,28.44734049327,-3.9897420038E-05 77.1906835421128,28.4473503669268,-3.9897420038E-05 77.1906586192009,28.4473630545622,-3.9897420038E-05 77.1906448209027,28.4473682157714,-3.9897420038E-05 77.1906197064353,28.4473831939801,-3.9897420038E-05 77.1906104407203,28.4473879675815,-3.9897420038E-05 77.190601006832,28.4473902428663,-3.9897420038E-05 77.1905938203495,28.4473900701964,-3.9897420038E-05 77.1905766657815,28.447382166055,-3.9897420038E-05 77.1905524479381,28.4473741288139,-3.9897420038E-05 77.1905379553633,28.447368831807,-3.9897420038E-05 77.1905188582597,28.4473659099097,-3.9897420038E-05 77.1904998034242,28.447362995207,-3.9897420038E-05 77.1904784238412,28.4473600301421,-3.9897420038E-05 77.1904570946202,28.4473570731712,-3.9897420038E-05 77.1904500106605,28.4473569067967,-3.9897420038E-05 77.1903699835888,28.4473186262545,-3.9897420038E-05 77.1903514125886,28.4473110143927,-3.9897420038E-05 77.1903398284213,28.4473083640906,-3.9897420038E-05 77.1902264113208,28.4472518201163,-3.9897420038E-05 77.1902219641733,28.4472494144298,-3.9897420038E-05 77.1902041288185,28.447242123626,-3.9897420038E-05 77.1901039830134,28.4471902291467,-3.9897420038E-05 77.1900835818928,28.4471960801359,-3.9897420038E-05 77.1900613767321,28.4471972573484,-3.9897420038E-05 77.1900406527549,28.4472072407224,-3.9897420038E-05 77.1899639019135,28.4472456210894,-3.9897420038E-05 77.1899612300277,28.4472499549224,-3.9897420038E-05 77.1899023019507,28.4473122005984,-3.9897420038E-05 77.1898413620902,28.4473818467957,-3.9897420038E-05 77.1897600202097,28.4475045718794,-3.9897420038E-05 77.1896701212801,28.4476248948739,-3.9897420038E-05 77.1895839131681,28.4477243032349,-3.9897420038E-05 77.1895021755859,28.4478198822826,-3.9897420038E-05 77.1893219757296,28.4479151870372,-3.9897420038E-05 77.1891158061505,28.4480045859437,-3.9897420038E-05 77.189018965354,28.4480447910352,-3.9897420038E-05 77.1889430203051,28.448115659411,-3.9897420038E-05 77.1888676427285,28.4482053721811,-3.9897420038E-05 77.1887659581834,28.448283168934,-3.9897420038E-05 77.1886385710142,28.4483913843558,-3.9897420038E-05 77.1884933430943,28.4484611807398,-3.9897420038E-05 77.1883217704344,28.4485506192166,-3.9897420038E-05 77.1881887301268,28.4486250929746,-3.9897420038E-05 77.1880659717681,28.4486652548985,-3.9897420038E-05 77.1879979974106,28.448703480582,-3.9897420038E-05 77.1879193876706,28.4487460445952,-3.9897420038E-05 77.187863764602,28.4487633007866,-3.9897420038E-05 77.1878036170443,28.4487980667782,-3.9897420038E-05 77.1876899643214,28.4488756396,-3.9897420038E-05 77.1876385132078,28.4488852308696,-3.9897420038E-05 77.1876324301935,28.4488913786351,-3.9897420038E-05 77.187567402015,28.4488913831317,-3.9897420038E-05 77.1874891699902,28.4488852380642,-3.9897420038E-05 77.1874061104047,28.448864539268,-3.9897420038E-05 77.1873089602413,28.4488794886983,-3.9897420038E-05 77.1872045012877,28.448907427037,-3.9897420038E-05 77.1870968740225,28.4489342619075,-3.9897420038E-05 77.187043317596,28.4490002946288,-3.9897420038E-05 77.1869481864106,28.4491480289593,-3.9897420038E-05 77.1869107854054,28.4492369809028,-3.9897420038E-05 77.1868854721878,28.4493976052162,-3.9897420038E-05 77.1868634495895,28.4495753499234,-3.9897420038E-05 77.1868322709935,28.4496890961757,-3.9897420038E-05 77.1867525937582,28.4499066763529,-3.9897420038E-05 77.1867001587863,28.4500180618849,-3.9897420038E-05 77.1866250141341,28.4502054095529,-3.9897420038E-05 77.1865985039188,28.450312668096,-3.9897420038E-05 77.1865807773819,28.450490294992,-3.9897420038E-05 77.1865566036054,28.4505827587882,-3.9897420038E-05 77.1865460230815,28.4506794206196,-3.9897420038E-05 77.1865310421749,28.4508569935563,-3.9897420038E-05 77.1865118290586,28.4509814102648,-3.9897420038E-05 77.1864895159794,28.4511278288871,-3.9897420038E-05 77.186481128902,28.451261610236,-3.9897420038E-05 77.1865132589807,28.4513568781183,-3.9897420038E-05 77.1865846939294,28.4514434558517,-3.9897420038E-05 77.1866286878646,28.4515179961595,-3.9897420038E-05 77.1866439079909,28.4516003263948,-3.9897420038E-05 77.1866633072668,28.4518126536319,-3.9897420038E-05 77.1866427496641,28.4519280231606,-3.9897420038E-05 77.1866354957325,28.4520148841804,-3.9897420038E-05 77.186627541229,28.4520870862509,-3.9897420038E-05 77.1866297832389,28.4521835169566,-3.9897420038E-05 77.1866632056434,28.4522982173897,-3.9897420038E-05 77.186716779157,28.4523561661051,-3.9897420038E-05 77.1867855251328,28.4524555951505,-3.9897420038E-05 77.1868002371422,28.4525277063894,-3.9897420038E-05 77.1867886538743,28.4526169317269,-3.9897420038E-05 77.1867659540865,28.452702386207,-3.9897420038E-05 77.1866738248381,28.4527986019748,-3.9897420038E-05 77.1866223404496,28.4528452408161,-3.9897420038E-05 77.1864985217903,28.4529365651712,-3.9897420038E-05 77.1863909997458,28.4530138124384,-3.9897420038E-05 77.1861695983492,28.4531500831107,-3.9897420038E-05 77.185971116175,28.4532761518738,-3.9897420038E-05 77.1857560603949,28.4534290276284,-3.9897420038E-05 77.1855441846174,28.4535428170482,-3.9897420038E-05 77.185311085739,28.4536527681616,-3.9897420038E-05 77.185153645925,28.4537780769975,-3.9897420038E-05 77.1850069673986,28.4539423687462,-3.9897420038E-05 77.1848973975978,28.4540793552789,-3.9897420038E-05 77.1847852872122,28.4541846991654,-3.9897420038E-05 77.1846511389399,28.454263427616,-3.9897420038E-05 77.1845269479613,28.4543285628138,-3.9897420038E-05 77.1843909362937,28.4544028692978,-3.9897420038E-05 77.1842503326877,28.4544729606595,-3.9897420038E-05 77.1841550009535,28.4545156559736,-3.9897420038E-05 77.1840582482905,28.4545341577261,-3.9897420038E-05 77.1839713566937,28.4545437400025,-3.9897420038E-05 77.1838957371995,28.4545369708055,-3.9897420038E-05 77.1837806383667,28.4545250763721,-3.9897420038E-05 77.1837019198088,28.4545342431617,-3.9897420038E-05 77.1837014053965,28.4545343654694,-3.9897420038E-05 77.1835582468166,28.4545684129028,-3.9897420038E-05 77.1835546441325,28.4545692699567,-3.9897420038E-05 77.1834567790081,28.4546125597227,-3.9897420038E-05 77.1834085681519,28.4547034290209,-3.9897420038E-05 77.1833952932591,28.4547534726955,-3.9897420038E-05 77.1833850913499,28.4548351967878,-3.9897420038E-05 77.1833612566177,28.4549603266586,-3.9897420038E-05 77.1833023582182,28.4550708992035,-3.9897420038E-05 77.1833002870796,28.4550792197311,-3.9897420038E-05 77.1832934351449,28.4550909882594,-3.9897420038E-05 77.1832871569777,28.4550960928113,-3.9897420038E-05 77.1831968749368,28.4551694999734,-3.9897420038E-05 77.183083186241,28.4552120477986,-3.9897420038E-05 77.1829843687346,28.4552779420243,-3.9897420038E-05 77.1828477644138,28.4553321918281,-3.9897420038E-05 77.1826257937464,28.4553711351707,-3.9897420038E-05 77.1825180189924,28.4553910137851,-3.9897420038E-05 77.1822436772049,28.4554285236084,-3.9897420038E-05 77.1820628379306,28.4554597516671,-3.9897420038E-05 77.1818542141017,28.4555132298526,-3.9897420038E-05 77.1816608077011,28.4555690723557,-3.9897420038E-05 77.1815521237325,28.4556061630948,-3.9897420038E-05 77.181406777102,28.4556522929199,-3.9897420038E-05 77.1812775229403,28.4556778318673,-3.9897420038E-05 77.1810750037095,28.4557074330525,-3.9897420038E-05 77.180860815775,28.4557060723782,-3.9897420038E-05 77.1806716550738,28.4557255750761,-3.9897420038E-05 77.1805238622874,28.4558009553507,-3.9897420038E-05 77.1804377548995,28.4559259098538,-3.9897420038E-05 77.1804068649858,28.4561031554372,-3.9897420038E-05 77.1803544363092,28.4563006213775,-3.9897420038E-05 77.1802626110317,28.4564604156166,-3.9897420038E-05 77.1801749837895,28.4565748390585,-3.9897420038E-05 77.180097015266,28.4566722338374,-3.9897420038E-05 77.1800300445519,28.4566838063135,-3.9897420038E-05 77.1799678672243,28.4566381810081,-3.9897420038E-05 77.1799252429566,28.4565620030349,-3.9897420038E-05 77.1798602768313,28.4565662730159,-3.9897420038E-05 77.1797651339547,28.4566095232118,-3.9897420038E-05 77.1796244988725,28.4566747186642,-3.9897420038E-05 77.1795270618254,28.4567272669507,-3.9897420038E-05 77.1794082056252,28.4566722068577,-3.9897420038E-05 77.1792580332326,28.4565911527604,-3.9897420038E-05 77.1791468356589,28.4565196053964,-3.9897420038E-05 77.1790592569801,28.4564308387131,-3.9897420038E-05 77.1789560435875,28.4563778038934,-3.9897420038E-05 77.1789443452063,28.4563714429886,-3.9897420038E-05 77.1789402218147,28.4563714429886,-3.9897420038E-05 77.1788185992999,28.4563714438879,-3.9897420038E-05 77.1786901392395,28.4564082360521,-3.9897420038E-05 77.1785886696324,28.4564322029847,-3.9897420038E-05 77.1785441909626,28.4564285409453,-3.9897420038E-05 77.1785105428283,28.4563634821898,-3.9897420038E-05 77.17847778862,28.456317366754,-3.9897420038E-05 77.1783187803884,28.4563198974462,-3.9897420038E-05 77.178215709988,28.4563392778363,-3.9897420038E-05 77.1780695152969,28.4563508566076,-3.9897420038E-05 77.1780596461367,28.4563529115585,-3.9897420038E-05 77.1780456176122,28.4563549350331,-3.9897420038E-05 77.178035725969,28.4563569935813,-3.9897420038E-05 77.1780295008617,28.4563569432192,-3.9897420038E-05 77.1780055267346,28.4563610333359,-3.9897420038E-05 77.1779976765525,28.4563631161657,-3.9897420038E-05 77.1779773491763,28.4563650973722,-3.9897420038E-05 77.1779520476499,28.456373513228,-3.9897420038E-05 77.1779416388965,28.4563734250944,-3.9897420038E-05 77.177933312973,28.4563733549472,-3.9897420038E-05 77.1779295636994,28.4563754863405,-3.9897420038E-05 77.1779174759118,28.4563775502846,-3.9897420038E-05 77.1779036902041,28.456381770803,-3.9897420038E-05 77.177891961246,28.4563860200996,-3.9897420038E-05 77.1778868638887,28.4563925203994,-3.9897420038E-05 77.1778746987593,28.4563946014306,-3.9897420038E-05 77.1778642396439,28.4563945105991,-3.9897420038E-05 77.177847872882,28.4563965583554,-3.9897420038E-05 77.1778339405849,28.4564008220412,-3.9897420038E-05 77.1778217250935,28.4564029120656,-3.9897420038E-05 77.1778154388324,28.456402857207,-3.9897420038E-05 77.1778059833604,28.4564093781912,-3.9897420038E-05 77.1777407582304,28.4564376888491,-3.9897420038E-05 77.1777280049445,28.4564375737359,-3.9897420038E-05 77.1777046315645,28.4564373623953,-3.9897420038E-05 77.1776890732931,28.4564349836884,-3.9897420038E-05 77.177682706093,28.4564349270311,-3.9897420038E-05 77.1776629353971,28.4564325141501,-3.9897420038E-05 77.1776516686905,28.456430182208,-3.9897420038E-05 77.1776384468578,28.4564211674038,-3.9897420038E-05 77.1776308080164,28.4564166680956,-3.9897420038E-05 77.1776240037457,28.4564077791965,-3.9897420038E-05 77.1776138638897,28.4563945303842,-3.9897420038E-05 77.1776038013753,28.4563813813965,-3.9897420038E-05 77.1776012985621,28.4563727056367,-3.9897420038E-05 77.1775981896058,28.4563619227654,-3.9897420038E-05 77.1775957155708,28.4563533441324,-3.9897420038E-05 77.1775914159121,28.4563384315742,-3.9897420038E-05 77.1775859417388,28.4563194468859,-3.9897420038E-05 77.1775847339493,28.4563152569444,-3.9897420038E-05 77.1775799621465,28.4562986248825,-3.9897420038E-05 77.1775776194126,28.4562903915892,-3.9897420038E-05 77.1775747047099,28.456280156405,-3.9897420038E-05 77.1775723871569,28.4562720103459,-3.9897420038E-05 77.1775638274097,28.4562558639179,-3.9897420038E-05 77.1775601437866,28.45624985195,-3.9897420038E-05 77.1775522549336,28.4562358989684,-3.9897420038E-05 77.1775472061396,28.4562319536426,-3.9897420038E-05 77.1775296243936,28.4562182155991,-3.9897420038E-05 77.177519103225,28.4562084561562,-3.9897420038E-05 77.1775135975755,28.4562026213547,-3.9897420038E-05 77.1774287528357,28.4562071251596,-3.9897420038E-05 77.1772666707213,28.4562804558792,-3.9897420038E-05 77.1770520052468,28.4564076371037,-3.9897420038E-05 77.1769392644365,28.4564761132829,-3.9897420038E-05 77.1768425783233,28.4565211396397,-3.9897420038E-05 77.176740803846,28.4565476732374,-3.9897420038E-05 77.1765629737033,28.4565642756217,-3.9897420038E-05 77.1764593996825,28.4565738300191,-3.9897420038E-05 77.1764166935765,28.4565500348571,-3.9897420038E-05 77.1764092049219,28.456542955394,-3.9897420038E-05 77.1764014338801,28.4565335547806,-3.9897420038E-05 77.1763936997104,28.4565242018313,-3.9897420038E-05 77.1763857047375,28.4565125753959,-3.9897420038E-05 77.1763777592272,28.456501020007,-3.9897420038E-05 77.176372006264,28.4564895356644,-3.9897420038E-05 77.1763687120474,28.4564804003511,-3.9897420038E-05 77.1763630184395,28.4564690419136,-3.9897420038E-05 77.1763597646924,28.4564600064251,-3.9897420038E-05 77.1763522832323,28.4564510132046,-3.9897420038E-05 77.1763506419695,28.4564376061115,-3.9897420038E-05 77.1763456048668,28.4564309394372,-3.9897420038E-05 77.176342692862,28.4564242961453,-3.9897420038E-05 77.1763395272484,28.4564154755946,-3.9897420038E-05 77.1763340198002,28.4564045110602,-3.9897420038E-05 77.1763303784452,28.4563914394143,-3.9897420038E-05 77.1763275248964,28.4563849382152,-3.9897420038E-05 77.1763244294298,28.4563763074215,-3.9897420038E-05 77.1763213483525,28.456367716198,-3.9897420038E-05 77.1763162123243,28.4563591663433,-3.9897420038E-05 77.1763126779887,28.4563464166547,-3.9897420038E-05 77.1763071147825,28.4563337577976,-3.9897420038E-05 77.1763041110469,28.4563253680222,-3.9897420038E-05 77.1762986098939,28.4563128566539,-3.9897420038E-05 77.17629791202,28.456306635144,-3.9897420038E-05 77.1762944927976,28.4562942541774,-3.9897420038E-05 77.1762933506586,28.4562840037047,-3.9897420038E-05 77.1762919881857,28.4562717810188,-3.9897420038E-05 77.1762910852664,28.4562636790264,-3.9897420038E-05 77.1762837171208,28.4562515966347,-3.9897420038E-05 77.1762790496394,28.4562455873648,-3.9897420038E-05 77.1762659788928,28.456235615682,-3.9897420038E-05 77.1762613635721,28.4562296603714,-3.9897420038E-05 77.1762505905933,28.4562217517333,-3.9897420038E-05 77.1762438393827,28.4562138790681,-3.9897420038E-05 77.1762331554368,28.4562060423758,-3.9897420038E-05 77.1762164109596,28.4561962946242,-3.9897420038E-05 77.1762142579826,28.4561943529879,-3.9897420038E-05 77.1762038843028,28.4561885694478,-3.9897420038E-05 77.1761956878817,28.456184758121,-3.9897420038E-05 77.176187347569,28.4561790303388,-3.9897420038E-05 77.1761791907181,28.4561752387971,-3.9897420038E-05 77.176162781688,28.4561657716339,-3.9897420038E-05 77.1761506372431,28.4561601301867,-3.9897420038E-05 77.1761345034056,28.4561526361362,-3.9897420038E-05 77.17612050276,28.4561470477489,-3.9897420038E-05 77.1761166131921,28.4561470720306,-3.9897420038E-05 77.1761084869181,28.4561414647576,-3.9897420038E-05 77.1760966176657,28.4561377766379,-3.9897420038E-05 77.1760847717958,28.4561340957128,-3.9897420038E-05 77.1760747911197,28.4561285423992,-3.9897420038E-05 77.1760650217843,28.4561267338626,-3.9897420038E-05 77.1760571104483,28.4561230520381,-3.9897420038E-05 77.176047363596,28.4561212488974,-3.9897420038E-05 77.1760375519924,28.456117589556,-3.9897420038E-05 77.1760160617928,28.4561103059468,-3.9897420038E-05 77.1760082358924,28.4561066582965,-3.9897420038E-05 77.1760024046882,28.4561048479612,-3.9897420038E-05 77.1759945536068,28.4560993728886,-3.9897420038E-05 77.1759810170113,28.4560957809963,-3.9897420038E-05 77.1759713807756,28.456094003936,-3.9897420038E-05 77.1759655531687,28.4560903778695,-3.9897420038E-05 77.175961686084,28.4560885738295,-3.9897420038E-05 77.1759481962532,28.4560831823939,-3.9897420038E-05 77.1759405214389,28.4560814062328,-3.9897420038E-05 77.1759309085855,28.4560760147971,-3.9897420038E-05 77.1759213272085,28.4560706404486,-3.9897420038E-05 77.1759098752415,28.4560670944218,-3.9897420038E-05 77.1758965445908,28.4560617668379,-3.9897420038E-05 77.1758870396561,28.4560600239518,-3.9897420038E-05 77.1758718249258,28.4560601075888,-3.9897420038E-05 77.1758642157619,28.4560601498569,-3.9897420038E-05 77.1758604107304,28.4560601714406,-3.9897420038E-05 77.1758527997679,28.4560602128095,-3.9897420038E-05 77.1758412848484,28.4560656752915,-3.9897420038E-05 77.1758258695692,28.4560729867798,-3.9897420038E-05 77.175812442691,28.4560748753561,-3.9897420038E-05 77.1758046878371,28.4560785481873,-3.9897420038E-05 77.1757949400854,28.4560840628301,-3.9897420038E-05 77.1757378547192,28.4561138276919,-3.9897420038E-05 77.1757045312401,28.4561430718462,-3.9897420038E-05</coordinates></LineString><LineString><coordinates>77.172403678488,28.4569140426498,-3.9897420038E-05 77.1724416739451,28.4568792280948,-3.9897420038E-05 77.1724851678572,28.4568552099009,-3.9897420038E-05 77.1725237658601,28.4568499281825,-3.9897420038E-05 77.1725695593387,28.4568523068893,-3.9897420038E-05 77.172621752393,28.4568234854164,-3.9897420038E-05 77.172686446923,28.4568037929616,-3.9897420038E-05 77.1728355671087,28.4567827515236,-3.9897420038E-05 77.1728774611269,28.4567665331498,-3.9897420038E-05 77.1729403012549,28.4567422064885,-3.9897420038E-05 77.1730901301064,28.4566698416407,-3.9897420038E-05 77.1731821073693,28.4566077317623,-3.9897420038E-05 77.1732233655669,28.456560425624,-3.9897420038E-05 77.173304726333,28.4564953749625,-3.9897420038E-05 77.1734249728852,28.4564390324363,-3.9897420038E-05 77.1734828226751,28.4564287783663,-3.9897420038E-05 77.1735391687986,28.4564309880006,-3.9897420038E-05 77.1736254155815,28.4564327182962,-3.9897420038E-05 77.1736959907784,28.4564424750411,-3.9897420038E-05 77.1737877674925,28.4564565566257,-3.9897420038E-05 77.1739045813324,28.4564904520736,-3.9897420038E-05 77.1740393978009,28.4565442729008,-3.9897420038E-05 77.1741851815019,28.4566181315224,-3.9897420038E-05 77.1744142019548,28.4567186478482,-3.9897420038E-05 77.1745933388125,28.4567888633163,-3.9897420038E-05 77.1747387726772,28.4568456231279,-3.9897420038E-05 77.1747917283566,28.4568541055334,-3.9897420038E-05 77.1748550469239,28.4568530928968,-3.9897420038E-05 77.1748918543765,28.4568462850289,-3.9897420038E-05 77.1749406246111,28.4568221813994,-3.9897420038E-05 77.1749858452216,28.4567965803988,-3.9897420038E-05 77.1750532925764,28.4567395256095,-3.9897420038E-05 77.1751102520375,28.4566857479498,-3.9897420038E-05 77.1751899805341,28.4566269421805,-3.9897420038E-05 77.1752999352448,28.4564976835222,-3.9897420038E-05 77.1754261919662,28.456380388545,-3.9897420038E-05 77.1756309154354,28.4561822346233,-3.9897420038E-05 77.1756940370511,28.4561326397105,-3.9897420038E-05</coordinates></LineString></MultiGeometry>
  </Placemark>
  <Placemark>
	<name>1/6</name>
	<Style><LineStyle><color>ff0000ff</color></LineStyle><PolyStyle><fill>0</fill></PolyStyle></Style>
	<ExtendedData><SchemaData schemaUrl="#IFC_Drains">
		<SimpleData name="objectid">2</SimpleData>
		<SimpleData name="left_fid">0</SimpleData>
		<SimpleData name="right_fid">0</SimpleData>
		<SimpleData name="shape_leng">6006.92822831</SimpleData>
		<SimpleData name="problem">0</SimpleData>
		<SimpleData name="subdiv">CD 6/7</SimpleData>
		<SimpleData name="cross_sect">Y</SimpleData>
		<SimpleData name="depart">I&amp;FC</SimpleData>
		<SimpleData name="validated"></SimpleData>
		<SimpleData name="val_by"></SimpleData>
		<SimpleData name="phone_no">0</SimpleData>
		<SimpleData name="div"></SimpleData>
		<SimpleData name="comment"></SimpleData>
		<SimpleData name="seg_add"></SimpleData>
		<SimpleData name="l_sec_val"></SimpleData>
		<SimpleData name="start"></SimpleData>
		<SimpleData name="end_"></SimpleData>
		<SimpleData name="type"></SimpleData>
		<SimpleData name="drain_type">Natural</SimpleData>
		<SimpleData name="cov_open">Open</SimpleData>
		<SimpleData name="drain_name">Bankner Link Drain</SimpleData>
		<SimpleData name="user_">Preeti</SimpleData>
		<SimpleData name="date_new"></SimpleData>
		<SimpleData name="remarks"></SimpleData>
		<SimpleData name="agency_new"></SimpleData>
		<SimpleData name="maintained"></SimpleData>
		<SimpleData name="shape_Length">0.059363904584561</SimpleData>
	</SchemaData></ExtendedData>
      <MultiGeometry><LineString><coordinates>77.0683594121581,28.8593051871855,-3.9897420038E-05 77.0683828341015,28.8597346557307,-3.9897420038E-05 77.0683806235679,28.8599635457819,-3.9897420038E-05 77.0683808070296,28.860120285024,-3.9897420038E-05 77.0683915890016,28.8603309611058,-3.9897420038E-05 77.0683970155108,28.8604833179517,-3.9897420038E-05 77.0684040023438,28.8606504623498,-3.9897420038E-05 77.0684066751289,28.8608447285023,-3.9897420038E-05 77.0684040625984,28.8610403346446,-3.9897420038E-05 77.0684055824527,28.8612572484242,-3.9897420038E-05 77.0684072066283,28.8614499047902,-3.9897420038E-05 77.0684092516866,28.8615372568398,-3.9897420038E-05 77.0684116267961,28.8616611168679,-3.9897420038E-05 77.0684123543476,28.8617470246064,-3.9897420038E-05 77.0684129883697,28.8618616432012,-3.9897420038E-05 77.0684165119135,28.861981833096,-3.9897420038E-05 77.0684263289129,28.8620594427899,-3.9897420038E-05 77.0684146611087,28.8620975488637,-3.9897420038E-05 77.0684160100918,28.8621457057606,-3.9897420038E-05 77.0684266859438,28.8621767197807,-3.9897420038E-05 77.0684283155153,28.8622112636398,-3.9897420038E-05 77.0684243980685,28.8622534319512,-3.9897420038E-05 77.068426826238,28.8623173305812,-3.9897420038E-05 77.0684295215062,28.8623740418295,-3.9897420038E-05 77.0684301411391,28.86247747016,-3.9897420038E-05 77.0684408511653,28.8626532975126,-3.9897420038E-05 77.0684485421675,28.8627745692918,-3.9897420038E-05 77.0684574220733,28.8629494856311,-3.9897420038E-05 77.0684500611224,28.8631744321552,-3.9897420038E-05 77.0684522239919,28.8632876639954,-3.9897420038E-05 77.0684955928983,28.8633127829594,-3.9897420038E-05 77.0687802445137,28.8633067898774,-3.9897420038E-05 77.0692574526703,28.8633097711299,-3.9897420038E-05 77.0696281676068,28.8633111929581,-3.9897420038E-05 77.069811567251,28.8633103853668,-3.9897420038E-05 77.070106580855,28.8633050487899,-3.9897420038E-05 77.0704723108494,28.8633258105386,-3.9897420038E-05 77.0704768812041,28.8635139738917,-3.9897420038E-05 77.0704797338536,28.863740362029,-3.9897420038E-05 77.0705060273323,28.8638415411551,-3.9897420038E-05 77.0707037342909,28.8638425582883,-3.9897420038E-05 77.0709331711299,28.8638354977109,-3.9897420038E-05 77.071222653004,28.8638262724654,-3.9897420038E-05 77.0713780801353,28.8638234360037,-3.9897420038E-05 77.071599040864,28.8638185293026,-3.9897420038E-05 77.0718841646235,28.8638085630157,-3.9897420038E-05 77.0720611125313,28.863808745578,-3.9897420038E-05 77.0722754929207,28.8638132529801,-3.9897420038E-05 77.0723739677854,28.8638144508771,-3.9897420038E-05 77.0724715900928,28.8638080270197,-3.9897420038E-05 77.0725551910702,28.8638123392689,-3.9897420038E-05 77.0726070207983,28.8638489677566,-3.9897420038E-05 77.0727151354961,28.8639482843867,-3.9897420038E-05 77.0728566015519,28.8640741031383,-3.9897420038E-05 77.0730497030823,28.8642321338068,-3.9897420038E-05 77.0732187405534,28.864342765707,-3.9897420038E-05 77.0733706900063,28.8644559498831,-3.9897420038E-05 77.0734444847761,28.8645490288155,-3.9897420038E-05 77.0735087881011,28.8646765877552,-3.9897420038E-05 77.0735633050035,28.8647830054322,-3.9897420038E-05 77.073609584116,28.8648442105927,-3.9897420038E-05 77.0737147751178,28.8648546139502,-3.9897420038E-05 77.0739457866697,28.8648501083467,-3.9897420038E-05 77.0741603882923,28.8648445649256,-3.9897420038E-05 77.0746689827883,28.8648559548393,-3.9897420038E-05 77.0751612797702,28.8648471990399,-3.9897420038E-05 77.0755380912109,28.8648425036795,-3.9897420038E-05 77.075728002846,28.8648409235706,-3.9897420038E-05 77.0759060119539,28.8648337298936,-3.9897420038E-05 77.0761305753667,28.864831175819,-3.9897420038E-05 77.0763221120768,28.8648414820497,-3.9897420038E-05 77.07636158512,28.8648518206559,-3.9897420038E-05 77.0763745641358,28.8648848113858,-3.9897420038E-05 77.0763790589474,28.8649800513891,-3.9897420038E-05 77.0763825950817,28.8650924189809,-3.9897420038E-05 77.0763807658606,28.8652093074645,-3.9897420038E-05 77.0763958951554,28.8653575022478,-3.9897420038E-05 77.0765339671698,28.8653599690882,-3.9897420038E-05 77.0767086191084,28.8653685872914,-3.9897420038E-05 77.0768326652963,28.8653628792943,-3.9897420038E-05 77.0770052236132,28.8653605761306,-3.9897420038E-05 77.0771539211175,28.8653404430079,-3.9897420038E-05 77.077242562795,28.8653403018143,-3.9897420038E-05 77.0773004395646,28.8653641239561,-3.9897420038E-05 77.0774086657783,28.8654148394242,-3.9897420038E-05 77.0776022331575,28.8654609476655,-3.9897420038E-05 77.077749459371,28.8654803217603,-3.9897420038E-05 77.0778945128225,28.8655405349686,-3.9897420038E-05 77.0779549760423,28.8655733988941,-3.9897420038E-05 77.0780177909892,28.8656431242317,-3.9897420038E-05 77.0780635233139,28.865729523,-3.9897420038E-05 77.0780584088694,28.8657758911453,-3.9897420038E-05 77.0780211544537,28.8658824383248,-3.9897420038E-05 77.0780101620403,28.8659554992478,-3.9897420038E-05 77.0780021877517,28.8660698543412,-3.9897420038E-05 77.0779848686078,28.8661123652943,-3.9897420038E-05 77.0779190472272,28.8662441843225,-3.9897420038E-05 77.0779195355591,28.8662784997538,-3.9897420038E-05 77.0779507420341,28.8663244811908,-3.9897420038E-05 77.0781061044142,28.8664428922266,-3.9897420038E-05 77.0781382021173,28.8664546760434,-3.9897420038E-05 77.0783382679977,28.8664484248558,-3.9897420038E-05 77.078578465225,28.8664470300073,-3.9897420038E-05 77.0795187244106,28.8664528576141,-3.9897420038E-05 77.0801724299147,28.8664590098763,-3.9897420038E-05 77.0801802495199,28.8670617049346,-3.9897420038E-05 77.0801888209583,28.8676881169139,-3.9897420038E-05 77.0801769858802,28.8680339727905,-3.9897420038E-05 77.0802498075835,28.86803433162,-3.9897420038E-05 77.083019489259,28.8679659390777,-3.9897420038E-05</coordinates></LineString><LineString><coordinates>77.0830170574922,28.867966627059,-3.9897420038E-05 77.083011684043,28.8679804865111,-3.9897420038E-05 77.0829999937557,28.8680106353834,-3.9897420038E-05 77.0830044229168,28.8680106938393,-3.9897420038E-05 77.0830055668544,28.8680107082285,-3.9897420038E-05 77.0830253186645,28.8680109654346,-3.9897420038E-05 77.0830503980584,28.8680115185176,-3.9897420038E-05 77.0830517938062,28.8680115490946,-3.9897420038E-05 77.0830956420512,28.8680125167651,-3.9897420038E-05 77.0830974550844,28.8680125572346,-3.9897420038E-05 77.0831318514548,28.8680133162624,-3.9897420038E-05 77.0831333281416,28.8680133495373,-3.9897420038E-05 77.0831707219522,28.868014175115,-3.9897420038E-05 77.0831714962685,28.8680141922021,-3.9897420038E-05 77.0831716977166,28.8680141966987,-3.9897420038E-05 77.0831717390855,28.868014197598,-3.9897420038E-05 77.0831973472808,28.868014250658,-3.9897420038E-05 77.0832090969233,28.8680142749397,-3.9897420038E-05 77.0832097048649,28.8680142767383,-3.9897420038E-05 77.083210123949,28.8680142767383,-3.9897420038E-05 77.083210369464,28.868014278537,-3.9897420038E-05 77.0832260266608,28.8680143109126,-3.9897420038E-05 77.0832611415894,28.8680143855563,-3.9897420038E-05 77.083261729746,28.8680143864556,-3.9897420038E-05 77.083293279762,28.8680144530055,-3.9897420038E-05 77.0833042335046,28.8680144503075,-3.9897420038E-05 77.0833044403486,28.8680144503075,-3.9897420038E-05 77.0833415526715,28.8680144431129,-3.9897420038E-05 77.0833420688824,28.8680144422136,-3.9897420038E-05 77.0833629421471,28.8680144386163,-3.9897420038E-05 77.0833713741906,28.8680151715638,-3.9897420038E-05 77.0833716376919,28.8680151949462,-3.9897420038E-05 77.0833749849685,28.8680154854272,-3.9897420038E-05 77.0834042920754,28.8680180332066,-3.9897420038E-05 77.0834126854481,28.8680187625567,-3.9897420038E-05 77.0834221382221,28.8680195836378,-3.9897420038E-05 77.0834367800843,28.8680208570778,-3.9897420038E-05 77.0834443865502,28.8680214973951,-3.9897420038E-05 77.0834515145767,28.8680220963436,-3.9897420038E-05 77.0834814152361,28.8680246081501,-3.9897420038E-05 77.0834845017094,28.8680248671548,-3.9897420038E-05 77.083493244019,28.8680256019009,-3.9897420038E-05 77.0834994988038,28.8680261280043,-3.9897420038E-05 77.0835126253084,28.8680277081131,-3.9897420038E-05 77.0835138870572,28.8680278591992,-3.9897420038E-05 77.0835322098446,28.8680300625383,-3.9897420038E-05 77.0835413010911,28.8680311570131,-3.9897420038E-05 77.0835592911293,28.8680333198827,-3.9897420038E-05 77.0835908321521,28.8680323504135,-3.9897420038E-05 77.0835951138244,28.8680322191125,-3.9897420038E-05 77.0836130283196,28.8680316705261,-3.9897420038E-05 77.0836180177583,28.8680315176413,-3.9897420038E-05 77.0836315822327,28.868030980746,-3.9897420038E-05 77.0836427733963,28.8680305409775,-3.9897420038E-05 77.083662923606,28.8680297459769,-3.9897420038E-05 77.083679846149,28.8680290777806,-3.9897420038E-05 77.0836837456093,28.8680289959423,-3.9897420038E-05 77.0836957173844,28.8680287441321,-3.9897420038E-05 77.0837138378243,28.8680283628196,-3.9897420038E-05 77.0837326066754,28.8680279680172,-3.9897420038E-05 77.0837412662474,28.8680277872535,-3.9897420038E-05 77.0837536517107,28.8680275273494,-3.9897420038E-05 77.0837562606439,28.8680274715914,-3.9897420038E-05 77.083780929947,28.8680273870551,-3.9897420038E-05 77.0837842259622,28.868027375364,-3.9897420038E-05 77.083813510586,28.8680272746399,-3.9897420038E-05 77.0838164585637,28.8680272647474,-3.9897420038E-05 77.0838468772326,28.8680271586273,-3.9897420038E-05 77.0838489070024,28.8680271532314,-3.9897420038E-05 77.0838798895463,28.8680270453128,-3.9897420038E-05 77.0838807996602,28.8680270444135,-3.9897420038E-05 77.0839061362602,28.8680269553806,-3.9897420038E-05 77.0839063188225,28.8680269562799,-3.9897420038E-05 77.0839320457283,28.868026867247,-3.9897420038E-05 77.0839321680361,28.868026867247,-3.9897420038E-05 77.0839454807004,28.868026819583,-3.9897420038E-05 77.0839493774628,28.8680268060931,-3.9897420038E-05 77.0839494988713,28.8680268069924,-3.9897420038E-05 77.083958333811,28.8680267764155,-3.9897420038E-05 77.0839907139013,28.8680266657989,-3.9897420038E-05 77.0839907714579,28.8680266648996,-3.9897420038E-05 77.0839908703833,28.8680266648996,-3.9897420038E-05 77.0839910133756,28.8680266640002,-3.9897420038E-05 77.0840170433528,28.868026574068,-3.9897420038E-05 77.0840321366748,28.8680266055443,-3.9897420038E-05 77.0840324235585,28.8680266073429,-3.9897420038E-05 77.0840666202793,28.8680266792887,-3.9897420038E-05 77.0840667326945,28.8680266792887,-3.9897420038E-05 77.0840810238212,28.8680267089663,-3.9897420038E-05 77.0840887103267,28.8680267251541,-3.9897420038E-05 77.0841008592682,28.8680267503352,-3.9897420038E-05 77.084101509478,28.8680267512345,-3.9897420038E-05 77.0841185974962,28.8680267881066,-3.9897420038E-05 77.0841235194858,28.8680267988985,-3.9897420038E-05 77.0841660772037,28.8680268879314,-3.9897420038E-05 77.0841686168891,28.8680268915287,-3.9897420038E-05 77.0842001336302,28.8680269580785,-3.9897420038E-05 77.0842149850345,28.8680251369514,-3.9897420038E-05 77.0842157278745,28.8680250461198,-3.9897420038E-05 77.0842181038834,28.8680247547395,-3.9897420038E-05 77.0842444045566,28.8680215297707,-3.9897420038E-05 77.0842472805885,28.8680211763371,-3.9897420038E-05 77.0842678966471,28.8680186483429,-3.9897420038E-05 77.0842683633952,28.8680185907862,-3.9897420038E-05 77.0842903365308,28.8680119546888,-3.9897420038E-05 77.0842912367522,28.8680116821943,-3.9897420038E-05 77.0842979331041,28.8680096587196,-3.9897420038E-05 77.0843085307151,28.8679965430069,-3.9897420038E-05 77.0843096404785,28.8679951697422,-3.9897420038E-05 77.0843147720101,28.8679888187299,-3.9897420038E-05 77.0843162810725,28.8679823391145,-3.9897420038E-05 77.0843188054695,28.8679714995859,-3.9897420038E-05 77.0843197632474,28.8679673896842,-3.9897420038E-05 77.0843210528753,28.8679618534576,-3.9897420038E-05 77.0843198145088,28.8679418183611,-3.9897420038E-05 77.0843192911034,28.867933379123,-3.9897420038E-05 77.0843182415945,28.8679164143119,-3.9897420038E-05 77.0843172064749,28.8678996905192,-3.9897420038E-05 77.0843165805467,28.8678895857367,-3.9897420038E-05 77.0843154869711,28.8678719122598,-3.9897420038E-05 77.0843155715074,28.8678699418452,-3.9897420038E-05 77.0843165184935,28.8678475613168,-3.9897420038E-05 77.0843168017799,28.8678408316899,-3.9897420038E-05 77.0843176048746,28.8678218676859,-3.9897420038E-05 77.0843177604573,28.8678181741703,-3.9897420038E-05 77.0843184295529,28.8678023829744,-3.9897420038E-05 77.084318471821,28.8677986885595,-3.9897420038E-05 77.0843187011481,28.8677783270091,-3.9897420038E-05 77.0843187236312,28.8677764555199,-3.9897420038E-05 77.0843189538576,28.8677559932454,-3.9897420038E-05 77.0843189709447,28.8677545588267,-3.9897420038E-05 77.0843191723929,28.8677367045862,-3.9897420038E-05 77.0843191876813,28.8677361389126,-3.9897420038E-05 77.0843193684451,28.8677287545792,-3.9897420038E-05 77.0843194062166,28.8677272590067,-3.9897420038E-05 77.0843199952726,28.8677032758864,-3.9897420038E-05 77.0843202201031,28.8676941198886,-3.9897420038E-05 77.0843207111329,28.8676742115965,-3.9897420038E-05 77.0843211940688,28.8676545740003,-3.9897420038E-05 77.0843212750078,28.8676513184545,-3.9897420038E-05 77.0843214755566,28.8676431786906,-3.9897420038E-05 77.0843220790017,28.8676186793595,-3.9897420038E-05 77.0843221815244,28.8676045294264,-3.9897420038E-05 77.0843222183967,28.867599384405,-3.9897420038E-05 77.0843223874692,28.8675761234402,-3.9897420038E-05 77.084322512475,28.8675721088666,-3.9897420038E-05 77.084322800258,28.8675629097014,-3.9897420038E-05 77.084323548494,28.8675389634533,-3.9897420038E-05 77.0843238398743,28.8675296338864,-3.9897420038E-05 77.0843242014017,28.8675179957598,-3.9897420038E-05 77.0843239630814,28.8675100115786,-3.9897420038E-05 77.0843235934601,28.8674976926653,-3.9897420038E-05 77.0843235781716,28.8674972232192,-3.9897420038E-05 77.0843235511919,28.8674962870249,-3.9897420038E-05 77.0843233740255,28.8674903703852,-3.9897420038E-05 77.084331772794,28.8674827594227,-3.9897420038E-05 77.0843323303737,28.867482252205,-3.9897420038E-05 77.0843328861548,28.8674817494841,-3.9897420038E-05 77.0843347711337,28.8674800407721,-3.9897420038E-05 77.0843392812338,28.8674759515548,-3.9897420038E-05 77.084355439353,28.8674728399005,-3.9897420038E-05 77.084359901789,28.8674719801487,-3.9897420038E-05 77.0843611464507,28.8674719828466,-3.9897420038E-05 77.0843948233634,28.867472053893,-3.9897420038E-05 77.0843967056445,28.8674720583896,-3.9897420038E-05 77.0844029999994,28.8674720709802,-3.9897420038E-05 77.0844284679005,28.8674721249395,-3.9897420038E-05 77.0844353216337,28.8674721276375,-3.9897420038E-05 77.0844443463305,28.8674721303354,-3.9897420038E-05 77.0844838670378,28.8674721456239,-3.9897420038E-05 77.0844905049339,28.8674721474225,-3.9897420038E-05 77.0844929672776,28.8674721465232,-3.9897420038E-05 77.0844970268173,28.8674721492212,-3.9897420038E-05 77.084521108863,28.8674721573151,-3.9897420038E-05 77.0845320410219,28.8674723263877,-3.9897420038E-05 77.0845357075578,28.8674723812463,-3.9897420038E-05 77.0845722748916,28.8674729415239,-3.9897420038E-05 77.084577445094,28.8674730206642,-3.9897420038E-05 77.0845820298378,28.867473089912,-3.9897420038E-05 77.0846062665669,28.8674734604327,-3.9897420038E-05 77.0846169082447,28.8674733444202,-3.9897420038E-05 77.0846239679228,28.8674732679778,-3.9897420038E-05 77.084658710532,28.8674728893632,-3.9897420038E-05 77.0846617889114,28.8674728560883,-3.9897420038E-05 77.0846983004872,28.867472458588,-3.9897420038E-05 77.0847051047577,28.8674723848436,-3.9897420038E-05 77.0847411028206,28.8674719918398,-3.9897420038E-05 77.0847488765604,28.8674719082029,-3.9897420038E-05 77.084789732761,28.8674714639378,-3.9897420038E-05 77.0847942977197,28.8674714126764,-3.9897420038E-05 77.0847987511624,28.8674713650124,-3.9897420038E-05 77.0848016595699,28.8674713326368,-3.9897420038E-05 77.0848041381014,28.8674713056571,-3.9897420038E-05 77.0848431497925,28.8674713874954,-3.9897420038E-05 77.0848492714777,28.8674714009853,-3.9897420038E-05 77.0848853109093,28.8674714747297,-3.9897420038E-05 77.0848892202623,28.8674714837229,-3.9897420038E-05 77.0848929101807,28.8674714909175,-3.9897420038E-05 77.084894952541,28.8674714954141,-3.9897420038E-05 77.0849295161852,28.86747150081,-3.9897420038E-05 77.0849322249432,28.8674714999107,-3.9897420038E-05 77.0849349130168,28.8674714999107,-3.9897420038E-05 77.0849761037651,28.8674715053066,-3.9897420038E-05 77.084989001842,28.8674715331856,-3.9897420038E-05 77.0849916728284,28.8674715385815,-3.9897420038E-05 77.0849960525268,28.8674715466754,-3.9897420038E-05 77.0850402919769,28.8674716393056,-3.9897420038E-05 77.0850421985396,28.8674716447015,-3.9897420038E-05 77.0850440592369,28.8674716482988,-3.9897420038E-05 77.0850458866593,28.8674716527954,-3.9897420038E-05 77.0850552477025,28.8674716725805,-3.9897420038E-05 77.0850914795891,28.8674717463249,-3.9897420038E-05 77.0850928960213,28.8674717499222,-3.9897420038E-05 77.0851409369057,28.8674718515456,-3.9897420038E-05 77.0851413892647,28.8674718515456,-3.9897420038E-05 77.0851418371271,28.8674718533442,-3.9897420038E-05 77.0851429648769,28.8674718560422,-3.9897420038E-05 77.0851748944068,28.8674719792493,-3.9897420038E-05 77.0851904328931,28.8674720395039,-3.9897420038E-05 77.0851918781037,28.8674720448998,-3.9897420038E-05 77.0852323206161,28.8674722022812,-3.9897420038E-05 77.0852410530331,28.8674719441757,-3.9897420038E-05 77.0852422266484,28.8674719082029,-3.9897420038E-05 77.0852907783477,28.8674704692876,-3.9897420038E-05 77.0852931534573,28.8674703982412,-3.9897420038E-05 77.0853081892225,28.8674699521774,-3.9897420038E-05 77.0853439579583,28.8674694386646,-3.9897420038E-05 77.0853458375414,28.8674694116849,-3.9897420038E-05 77.0853953973806,28.8674687003211,-3.9897420038E-05 77.0854011422499,28.8674686166842,-3.9897420038E-05 77.0854264860445,28.8674682542574,-3.9897420038E-05 77.0854397645345,28.8674680627018,-3.9897420038E-05 77.085440145847,28.8674680573059,-3.9897420038E-05 77.0854808419683,28.8674674718472,-3.9897420038E-05 77.085483170313,28.8674674394716,-3.9897420038E-05 77.0854841973388,28.8674674232838,-3.9897420038E-05 77.085527180436,28.8674668054496,-3.9897420038E-05 77.0855304899412,28.8674667595841,-3.9897420038E-05 77.0855618672873,28.8674663090238,-3.9897420038E-05 77.0855726366688,28.8674659070269,-3.9897420038E-05 77.0855775811414,28.8674657235651,-3.9897420038E-05 77.0856157987311,28.8674643026363,-3.9897420038E-05 77.0856201001885,28.867464142557,-3.9897420038E-05 77.0856252551024,28.8674639501021,-3.9897420038E-05 77.0856681815423,28.8674579228457,-3.9897420038E-05 77.085669777839,28.8674576998139,-3.9897420038E-05 77.0856732842956,28.8674573041122,-3.9897420038E-05 77.0856750244837,28.8674571098586,-3.9897420038E-05 77.085719727984,28.8674520853463,-3.9897420038E-05 77.0857216858082,28.8674518650124,-3.9897420038E-05 77.0857229628454,28.8674518668111,-3.9897420038E-05 77.0857573664103,28.8674519396562,-3.9897420038E-05 77.0857579896405,28.8674519396562,-3.9897420038E-05 77.0857669666731,28.8674519603406,-3.9897420038E-05 77.0857698373091,28.8674519657365,-3.9897420038E-05 77.0857821805042,28.8674519918168,-3.9897420038E-05 77.0857868308985,28.8674520008101,-3.9897420038E-05 77.0858147161772,28.8674520601653,-3.9897420038E-05 77.0858194484098,28.8674520700579,-3.9897420038E-05 77.0858473543729,28.8674521267151,-3.9897420038E-05 77.0858526423865,28.8674521384063,-3.9897420038E-05 77.0858582658473,28.8674520556687,-3.9897420038E-05 77.0858858408599,28.8674516446785,-3.9897420038E-05 77.0858911765375,28.8674509845762,-3.9897420038E-05 77.0858939266644,28.8674506446324,-3.9897420038E-05 77.0859026590815,28.867449565446,-3.9897420038E-05 77.0859282115187,28.8674464052283,-3.9897420038E-05 77.0859291522096,28.8674462883164,-3.9897420038E-05 77.0859292295513,28.8674462802225,-3.9897420038E-05 77.0859324590168,28.8674458800242,-3.9897420038E-05 77.0859508888234,28.867446211874,-3.9897420038E-05 77.0859613542341,28.8674463998324,-3.9897420038E-05 77.0859620386182,28.8674464106242,-3.9897420038E-05 77.0859672870616,28.8674465068517,-3.9897420038E-05 77.0859828956951,28.8674467865408,-3.9897420038E-05 77.0859922603355,28.8674464987578,-3.9897420038E-05 77.0859942559312,28.8674464367046,-3.9897420038E-05 77.0860245837685,28.8674455059062,-3.9897420038E-05 77.0860336201564,28.8674440535012,-3.9897420038E-05 77.0860346426856,28.8674438898245,-3.9897420038E-05 77.0860616412327,28.8674395559916,-3.9897420038E-05 77.0860629245653,28.8674393500468,-3.9897420038E-05 77.0860651045219,28.8674390011099,-3.9897420038E-05 77.0860889329589,28.8674346259081,-3.9897420038E-05 77.0860908224345,28.8674342787698,-3.9897420038E-05 77.086092485281,28.8674339756983,-3.9897420038E-05 77.0861070857744,28.8674312948193,-3.9897420038E-05 77.0861172813884,28.8674298073406,-3.9897420038E-05 77.0861204703844,28.8674293405925,-3.9897420038E-05 77.0861451522779,28.8674257379084,-3.9897420038E-05 77.0861483187908,28.8674252756568,-3.9897420038E-05 77.0861787203726,28.8674208384019,-3.9897420038E-05 77.0861853177992,28.8674208518917,-3.9897420038E-05 77.086191282103,28.8674208635829,-3.9897420038E-05 77.0861968498057,28.867420875274,-3.9897420038E-05 77.0862277037465,28.8674209373273,-3.9897420038E-05 77.0862352445619,28.8674209517164,-3.9897420038E-05 77.0862377042076,28.8674209571124,-3.9897420038E-05 77.0862716913864,28.8674210254608,-3.9897420038E-05 77.0862724171393,28.8674210263601,-3.9897420038E-05 77.0862804247028,28.867421042548,-3.9897420038E-05 77.0863048071221,28.867419442654,-3.9897420038E-05 77.0863088630646,28.8674191755554,-3.9897420038E-05 77.0863102920873,28.8674190829252,-3.9897420038E-05 77.086353921797,28.8674162185845,-3.9897420038E-05 77.0863581144364,28.8674159424926,-3.9897420038E-05 77.0863628133941,28.8674156358238,-3.9897420038E-05 77.0863943751013,28.8674135619872,-3.9897420038E-05 77.0864119856256,28.8674103711925,-3.9897420038E-05 77.0864170362182,28.867409456582,-3.9897420038E-05 77.0864367682432,28.8674058790789,-3.9897420038E-05 77.0864408286823,28.8674051425342,-3.9897420038E-05 77.0864446517003,28.8674046739874,-3.9897420038E-05 77.0864628872534,28.8674024301789,-3.9897420038E-05 77.0864712671362,28.8674013995558,-3.9897420038E-05 77.0864802963296,28.8674002888931,-3.9897420038E-05 77.0864883695436,28.8673992960416,-3.9897420038E-05 77.0864969122037,28.8673992897463,-3.9897420038E-05 77.0865158564226,28.8673992762565,-3.9897420038E-05 77.0865241616617,28.8673992708605,-3.9897420038E-05 77.0865311395015,28.8673992654646,-3.9897420038E-05 77.0865477526776,28.8673992537734,-3.9897420038E-05 77.0865625420287,28.8673992843504,-3.9897420038E-05 77.0865674379379,28.8673992933436,-3.9897420038E-05 77.0866003837018,28.8673993607928,-3.9897420038E-05 77.0866023523177,28.8673993643901,-3.9897420038E-05 77.0866052283496,28.8673993706853,-3.9897420038E-05 77.0866295568096,28.867399420148,-3.9897420038E-05 77.0866302151133,28.8673994210473,-3.9897420038E-05 77.0866491827146,28.8673994588189,-3.9897420038E-05 77.0866540237652,28.8673994866978,-3.9897420038E-05 77.0866561911313,28.8673995001877,-3.9897420038E-05 77.0866568206567,28.8673995028856,-3.9897420038E-05 77.0866898356684,28.8673996953406,-3.9897420038E-05 77.0866909598209,28.8673997034344,-3.9897420038E-05 77.0867223488583,28.8673982339422,-3.9897420038E-05 77.0867225476085,28.8673982231504,-3.9897420038E-05 77.0867236339895,28.8673981727883,-3.9897420038E-05 77.0867542145364,28.8673967410676,-3.9897420038E-05 77.0867562254205,28.8673966484375,-3.9897420038E-05 77.0867851997781,28.8673952895618,-3.9897420038E-05 77.086788528169,28.8673951357778,-3.9897420038E-05 77.0868060892306,28.8673943137974,-3.9897420038E-05 77.0868084346625,28.867394318294,-3.9897420038E-05 77.086812912387,28.8673943263879,-3.9897420038E-05 77.0868321479862,28.8673943659581,-3.9897420038E-05 77.0868375664015,28.8673943758507,-3.9897420038E-05 77.0868480471007,28.8673943983337,-3.9897420038E-05 77.0868565816669,28.8673943938371,-3.9897420038E-05 77.0868636476402,28.8673943929377,-3.9897420038E-05 77.086882253714,28.8673943866425,-3.9897420038E-05 77.0868824039008,28.8673944055283,-3.9897420038E-05 77.0868891389236,28.8673952778707,-3.9897420038E-05 77.0869049579984,28.8673973220297,-3.9897420038E-05 77.086913356767,28.8673983634446,-3.9897420038E-05 77.0869345906598,28.8674009957602,-3.9897420038E-05 77.0869415478152,28.8674012817447,-3.9897420038E-05 77.0869443339149,28.8674013959586,-3.9897420038E-05 77.086965510251,28.8674022638043,-3.9897420038E-05 77.086984002111,28.8674023006765,-3.9897420038E-05 77.0869854859924,28.8674023051731,-3.9897420038E-05 77.0869860192904,28.8674020749467,-3.9897420038E-05 77.0870016045414,28.8673953660042,-3.9897420038E-05 77.0870020173302,28.8673951897371,-3.9897420038E-05 77.0870022295702,28.8673949532154,-3.9897420038E-05 77.0870112605622,28.8673850076129,-3.9897420038E-05 77.0870113145215,28.8673838268031,-3.9897420038E-05 77.0870113846686,28.8673822988549,-3.9897420038E-05 77.0870127219605,28.8673532057867,-3.9897420038E-05 77.0870124935327,28.8673459716401,-3.9897420038E-05 77.0870124512646,28.8673446892069,-3.9897420038E-05 77.087012343346,28.8673412277163,-3.9897420038E-05 77.0870118037527,28.8673242098453,-3.9897420038E-05 77.08701186041,28.8673236441717,-3.9897420038E-05 77.0870123316548,28.8673188984493,-3.9897420038E-05 77.0870142292243,28.8672998013456,-3.9897420038E-05 77.0870145062154,28.8672970053534,-3.9897420038E-05 77.0870153776585,28.8672882360641,-3.9897420038E-05 77.0870162985643,28.8672783039514,-3.9897420038E-05 77.087016428966,28.8672768947138,-3.9897420038E-05 77.0870178265125,28.867261818479,-3.9897420038E-05 77.0870174739782,28.8672574082037,-3.9897420038E-05 77.0870174056298,28.8672565538478,-3.9897420038E-05 77.0870145619734,28.8672210477141,-3.9897420038E-05 77.0870140673463,28.8672148855594,-3.9897420038E-05 77.0870120465697,28.8671896667706,-3.9897420038E-05 77.0870116364788,28.8671845361383,-3.9897420038E-05 77.0870112128981,28.867179249024,-3.9897420038E-05 77.087010877451,28.8671750644785,-3.9897420038E-05 77.0870106769022,28.8671543539911,-3.9897420038E-05 77.0870106238422,28.8671489418711,-3.9897420038E-05 77.0870105995605,28.8671463904944,-3.9897420038E-05 77.0870106499225,28.8671292997782,-3.9897420038E-05 77.0870106643117,28.8671239928789,-3.9897420038E-05 77.0870106885934,28.8671162721991,-3.9897420038E-05 77.0870096687622,28.8671043381955,-3.9897420038E-05 77.0870087478564,28.8670935391364,-3.9897420038E-05 77.0870074681212,28.8670840827651,-3.9897420038E-05 77.0870063304787,28.8670756983856,-3.9897420038E-05 77.0870037026597,28.8670562964118,-3.9897420038E-05 77.0870027646668,28.8670493707327,-3.9897420038E-05 77.087000712414,28.8670342207536,-3.9897420038E-05 77.0869999120173,28.8670283068118,-3.9897420038E-05 77.0869999228092,28.8670247409999,-3.9897420038E-05 77.086999964178,28.8670106099526,-3.9897420038E-05 77.0869999965536,28.8669995887609,-3.9897420038E-05 77.0870000118421,28.8669944131625,-3.9897420038E-05 77.0870011018204,28.8669852724532,-3.9897420038E-05 77.0870032862736,28.8669669532632,-3.9897420038E-05 77.0870032799784,28.8669665054008,-3.9897420038E-05 77.0870032044353,28.8669612074946,-3.9897420038E-05 77.0870031540733,28.8669575490525,-3.9897420038E-05 77.0870027457811,28.8669286079698,-3.9897420038E-05 77.0870026918217,28.8669248766826,-3.9897420038E-05 77.0870023806563,28.8669028585809,-3.9897420038E-05 77.08700240224,28.8668958654527,-3.9897420038E-05 77.0870024148306,28.8668913472587,-3.9897420038E-05 77.0870024561994,28.8668776397921,-3.9897420038E-05 77.0870024813804,28.8668694235859,-3.9897420038E-05 77.0870024939709,28.8668650690686,-3.9897420038E-05 77.0870025515275,28.8668453532313,-3.9897420038E-05 77.0870027817539,28.866842833331,-3.9897420038E-05 77.0870030776309,28.8668395849797,-3.9897420038E-05 77.0870033276424,28.866836826759,-3.9897420038E-05 77.0870054743241,28.8668132330451,-3.9897420038E-05 77.0870057405235,28.8667928822866,-3.9897420038E-05 77.0870057486174,28.8667923049218,-3.9897420038E-05 77.0870059716493,28.8667752330914,-3.9897420038E-05 77.0870060696753,28.8667676383167,-3.9897420038E-05 77.0870060723733,28.8667674521571,-3.9897420038E-05 77.0870063008011,28.8667499459541,-3.9897420038E-05 77.0870067441669,28.8667433287425,-3.9897420038E-05 77.0870068134147,28.8667422864282,-3.9897420038E-05 77.087007797273,28.8667275987006,-3.9897420038E-05 77.0870085913743,28.8667157366428,-3.9897420038E-05 77.0870087586483,28.8666894413655,-3.9897420038E-05 77.0870087622455,28.8666889125641,-3.9897420038E-05 77.0870091975174,28.8666858440773,-3.9897420038E-05 77.0870127003768,28.8666611810695,-3.9897420038E-05 77.0870130484144,28.8666587223231,-3.9897420038E-05 77.0870143866056,28.8666547877891,-3.9897420038E-05 77.0870197654508,28.8666389795062,-3.9897420038E-05 77.0870278197791,28.8666259501284,-3.9897420038E-05 77.0870299035082,28.8666225794693,-3.9897420038E-05 77.0870312219143,28.8666204489754,-3.9897420038E-05 77.0870321697998,28.8666195433581,-3.9897420038E-05 77.0870443034528,28.8666079466003,-3.9897420038E-05 77.0870494601654,28.8666037683501,-3.9897420038E-05 77.0870499134238,28.8666034005274,-3.9897420038E-05 77.0870636865409,28.8665922426388,-3.9897420038E-05 77.0870757887176,28.8665852306248,-3.9897420038E-05 77.0870798761363,28.8665828618105,-3.9897420038E-05 77.0871186279233,28.8665604066383,-3.9897420038E-05 77.0871228025762,28.866557987462,-3.9897420038E-05 77.0871235975769,28.8665575162173,-3.9897420038E-05 77.0871499710952,28.8665418518259,-3.9897420038E-05 77.0871524064594,28.8665404066153,-3.9897420038E-05 77.0871547608845,28.8665390072703,-3.9897420038E-05 77.0871815804666,28.8665230802768,-3.9897420038E-05 77.0871833395404,28.8665220370632,-3.9897420038E-05 77.0872139740466,28.8665038419796,-3.9897420038E-05 77.0872141395219,28.8665037430542,-3.9897420038E-05 77.0872144542846,28.8665035577939,-3.9897420038E-05 77.0872196397755,28.8665005108907,-3.9897420038E-05 77.0872243198475,28.8664977607639,-3.9897420038E-05 77.0872244421553,28.8664976897175,-3.9897420038E-05 77.0872244925173,28.8664976600398,-3.9897420038E-05 77.0872617226514,28.8664757876284,-3.9897420038E-05 77.0872623566734,28.866475415309,-3.9897420038E-05 77.0872681357168,28.8664720203683,-3.9897420038E-05 77.08728658351,28.86646051714,-3.9897420038E-05 77.0872869234537,28.8664603057994,-3.9897420038E-05 77.087304008774,28.8664496524304,-3.9897420038E-05 77.0873095962618,28.866446445448,-3.9897420038E-05 77.0873108553127,28.8664457214937,-3.9897420038E-05 77.0873110046002,28.8664456369575,-3.9897420038E-05 77.0873342484778,28.8664322964142,-3.9897420038E-05 77.087336164933,28.8664311965434,-3.9897420038E-05 77.0873440618799,28.8664266639602,-3.9897420038E-05 77.0873567126432,28.8664183892981,-3.9897420038E-05 77.0873604565209,28.8664159395449,-3.9897420038E-05 77.0873809412784,28.8664025432437,-3.9897420038E-05 77.0873832903076,28.8664010045036,-3.9897420038E-05 77.0873998783027,28.8663901550825,-3.9897420038E-05 77.087404953177,28.8663868374834,-3.9897420038E-05 77.0874053335903,28.8663865874719,-3.9897420038E-05 77.0874112619212,28.8663827104946,-3.9897420038E-05 77.0874278472184,28.8663732028619,-3.9897420038E-05 77.0874474938078,28.8663619406519,-3.9897420038E-05 77.0874504543759,28.8663603218723,-3.9897420038E-05 77.0874510991899,28.8663599684386,-3.9897420038E-05 77.0874733304308,28.8663478096046,-3.9897420038E-05 77.0874744500868,28.8663471971663,-3.9897420038E-05 77.0874745265291,28.8663471539988,-3.9897420038E-05 77.0874758917,28.8663464075615,-3.9897420038E-05 77.0874828677411,28.866342493712,-3.9897420038E-05 77.0875030170516,28.8663311901332,-3.9897420038E-05 77.0875080541543,28.866328154022,-3.9897420038E-05 77.08750845795,28.866327911205,-3.9897420038E-05 77.0875367029574,28.8663108897367,-3.9897420038E-05 77.0875400736165,28.8663089355098,-3.9897420038E-05 77.0875420080582,28.8663078122566,-3.9897420038E-05 77.0875434127992,28.8663069956722,-3.9897420038E-05 77.0875750014861,28.8662886755828,-3.9897420038E-05 77.0875769880885,28.8662875244506,-3.9897420038E-05 77.0876075497496,28.8662697970144,-3.9897420038E-05 77.0876100831398,28.8662683293208,-3.9897420038E-05 77.0876282818207,28.8662577730786,-3.9897420038E-05 77.0876315868293,28.8662559465556,-3.9897420038E-05 77.0876330014628,28.8662551650447,-3.9897420038E-05 77.0876523836516,28.8662444595151,-3.9897420038E-05 77.0876555852381,28.866242691448,-3.9897420038E-05 77.0876567174845,28.8662420664191,-3.9897420038E-05 77.0876621412958,28.8662390689788,-3.9897420038E-05 77.0876776483058,28.866229885102,-3.9897420038E-05 77.0876819659509,28.8662273301281,-3.9897420038E-05 77.0876849013381,28.8662255908392,-3.9897420038E-05 77.0876995782739,28.8662150606774,-3.9897420038E-05 77.0877022618509,28.8662131352289,-3.9897420038E-05 77.0877152237795,28.8662038389369,-3.9897420038E-05 77.0877182347098,28.866201677866,-3.9897420038E-05 77.0877288673943,28.8661940507158,-3.9897420038E-05 77.0877353604995,28.8661893913282,-3.9897420038E-05 77.0877388633588,28.8661851276424,-3.9897420038E-05 77.0877528819909,28.8661680684025,-3.9897420038E-05 77.0877529557353,28.8661679371015,-3.9897420038E-05 77.0877571609652,28.8661602838709,-3.9897420038E-05 77.0877632475768,28.8661492114178,-3.9897420038E-05 77.0877651424483,28.8661457643165,-3.9897420038E-05 77.0877677351938,28.8661373385682,-3.9897420038E-05 77.0877695581196,28.8661314129353,-3.9897420038E-05 77.0877698728823,28.8661294317288,-3.9897420038E-05 77.0877716094732,28.8661185508313,-3.9897420038E-05 77.0877731329247,28.8661090045278,-3.9897420038E-05 77.0877753965183,28.866094810528,-3.9897420038E-05 77.0877765206708,28.8660877607425,-3.9897420038E-05 77.0877780306326,28.8660782989752,-3.9897420038E-05 77.087778872398,28.8660730163575,-3.9897420038E-05 77.087780017235,28.8660550218227,-3.9897420038E-05 77.0877803841584,28.8660492553697,-3.9897420038E-05 77.0877811980448,28.8660364652116,-3.9897420038E-05 77.087781156676,28.8660348257475,-3.9897420038E-05 77.0877809057652,28.8660245159195,-3.9897420038E-05 77.087780573016,28.8660109163716,-3.9897420038E-05 77.0877801116638,28.8660057965312,-3.9897420038E-05 77.0877791107184,28.8659947177829,-3.9897420038E-05 77.0877778031041,28.8659802413959,-3.9897420038E-05 77.0877765233689,28.8659660698791,-3.9897420038E-05 77.087775954098,28.8659597737255,-3.9897420038E-05 77.0877740907027,28.8659391387811,-3.9897420038E-05 77.0877734899556,28.8659324739054,-3.9897420038E-05 77.0877723945813,28.8659203573395,-3.9897420038E-05 77.0877725096946,28.8659086850387,-3.9897420038E-05 77.0877725609559,28.8659032414423,-3.9897420038E-05 77.087772580741,28.8659013357789,-3.9897420038E-05 77.0877727039481,28.8658887470689,-3.9897420038E-05 77.0877722479918,28.8658798716596,-3.9897420038E-05 77.0877717947335,28.8658710601022,-3.9897420038E-05 77.0877716175671,28.865867624692,-3.9897420038E-05 77.0877702317118,28.8658406801042,-3.9897420038E-05 77.0877699106538,28.8658344469031,-3.9897420038E-05 77.0877698369094,28.8658330133837,-3.9897420038E-05 77.087770852244,28.8658251569063,-3.9897420038E-05 77.0877718801691,28.8658171988056,-3.9897420038E-05 77.0877718981556,28.8658170558134,-3.9897420038E-05 77.0877727803905,28.8658154936909,-3.9897420038E-05 77.0877763947658,28.8658091040078,-3.9897420038E-05 77.0877765134763,28.8658088926671,-3.9897420038E-05 77.0877765980126,28.8658087433797,-3.9897420038E-05 77.0877766249922,28.8658087208966,-3.9897420038E-05 77.0877853106446,28.8658012169535,-3.9897420038E-05 77.0877856622795,28.8658009129826,-3.9897420038E-05 77.0877902731036,28.8657969298853,-3.9897420038E-05 77.0877961438779,28.8657958408063,-3.9897420038E-05 77.0878058979249,28.8657940313703,-3.9897420038E-05 77.0878162572155,28.8657941527788,-3.9897420038E-05 77.0878234418993,28.8657942364158,-3.9897420038E-05 77.0878320996727,28.8657943362405,-3.9897420038E-05 77.087849037504,28.8657955233456,-3.9897420038E-05 77.0878515735922,28.865795700512,-3.9897420038E-05 77.0878560818936,28.8657960188721,-3.9897420038E-05 77.0878738426047,28.8657972743256,-3.9897420038E-05 77.0878773040953,28.8657975180419,-3.9897420038E-05 77.0878778949499,28.8657975225385,-3.9897420038E-05 77.0879019617071,28.8657977293826,-3.9897420038E-05 77.087906228091,28.8657976403497,-3.9897420038E-05 77.0879118470551,28.8657975225385,-3.9897420038E-05 77.0879468324813,28.8657967850945,-3.9897420038E-05 77.087963162371,28.8657964406541,-3.9897420038E-05 77.0879725252128,28.8657962446019,-3.9897420038E-05 77.0879826677669,28.8657960296639,-3.9897420038E-05 77.0879887435866,28.8657960818246,-3.9897420038E-05 77.0879957798823,28.8657961429785,-3.9897420038E-05 77.088011048572,28.8657962742795,-3.9897420038E-05 77.0880146701419,28.8657963048565,-3.9897420038E-05 77.0880266311251,28.8657963830975,-3.9897420038E-05 77.0880397270527,28.8657964667344,-3.9897420038E-05 77.0880512941329,28.8657965404788,-3.9897420038E-05 77.0880753222193,28.8657964280636,-3.9897420038E-05 77.0880764139963,28.8657963624131,-3.9897420038E-05 77.0880914857345,28.8657954612924,-3.9897420038E-05 77.0881006363363,28.8657949154039,-3.9897420038E-05 77.088102174177,28.8657948218744,-3.9897420038E-05 77.088115190065,28.8657933146106,-3.9897420038E-05 77.0881217569145,28.8657925519856,-3.9897420038E-05 77.0881239575556,28.8657922956788,-3.9897420038E-05 77.0881376146602,28.8657919782181,-3.9897420038E-05 77.0881445016684,28.8657918145415,-3.9897420038E-05 77.0881488966552,28.8657917129181,-3.9897420038E-05 77.0881601076039,28.8657918909839,-3.9897420038E-05 77.0881645808317,28.865791961131,-3.9897420038E-05 77.088171015481,28.8657920636537,-3.9897420038E-05 77.08817624324,28.865792274095,-3.9897420038E-05 77.0881932521179,28.865792963875,-3.9897420038E-05 77.0882120839215,28.8657937273995,-3.9897420038E-05 77.0882223155085,28.8657941428863,-3.9897420038E-05 77.0882266853143,28.8657943200527,-3.9897420038E-05 77.0882334563099,28.8657945943459,-3.9897420038E-05 77.0882423101355,28.8657946707883,-3.9897420038E-05 77.0882500595936,28.8657947355395,-3.9897420038E-05 77.0882603802133,28.8657948254717,-3.9897420038E-05 77.0882659128426,28.8657948425588,-3.9897420038E-05 77.0882711406016,28.8657948587466,-3.9897420038E-05 77.0882850243354,28.8657949019141,-3.9897420038E-05 77.0883037158448,28.8657949585714,-3.9897420038E-05 77.0883095074788,28.8657935583269,-3.9897420038E-05 77.0883174619823,28.8657916346771,-3.9897420038E-05 77.088320136566,28.8657909880645,-3.9897420038E-05 77.0883269813061,28.8657893324126,-3.9897420038E-05 77.0883273050621,28.8657892137022,-3.9897420038E-05 77.0883441295789,28.8657829760044,-3.9897420038E-05 77.0883499167163,28.8657808311214,-3.9897420038E-05 77.0883546057814,28.8657779505928,-3.9897420038E-05 77.0883698969541,28.8657685535767,-3.9897420038E-05 77.0883735697854,28.8657657764703,-3.9897420038E-05 77.0883793200505,28.8657614327448,-3.9897420038E-05 77.0883808614885,28.8657602681228,-3.9897420038E-05 77.0883902018473,28.8657561240468,-3.9897420038E-05 77.0883921542755,28.8657552571003,-3.9897420038E-05 77.0884008633102,28.8657519062264,-3.9897420038E-05 77.0884037096645,28.8657508099528,-3.9897420038E-05 77.0884108134093,28.8657480760138,-3.9897420038E-05 77.0884239444105,28.8657446082279,-3.9897420038E-05 77.0884321768045,28.8657424345666,-3.9897420038E-05 77.0884354143639,28.8657415514323,-3.9897420038E-05 77.0884574387608,28.8657355457597,-3.9897420038E-05 77.0884602707259,28.8657347732421,-3.9897420038E-05 77.0884605971798,28.8657346815112,-3.9897420038E-05 77.0884856388022,28.8657276506115,-3.9897420038E-05 77.0885093008645,28.8657205225849,-3.9897420038E-05 77.0885212807335,28.8657169136056,-3.9897420038E-05 77.0885241378796,28.8657160529544,-3.9897420038E-05 77.0885332929781,28.8657132947337,-3.9897420038E-05 77.0885388031243,28.8657107370618,-3.9897420038E-05 77.0885505095993,28.8657053024586,-3.9897420038E-05 77.0885697703796,28.8656923809995,-3.9897420038E-05 77.088573664444,28.8656889240055,-3.9897420038E-05 77.0885769955329,28.8656859670346,-3.9897420038E-05 77.0885816162495,28.8656818643274,-3.9897420038E-05 77.0885826360808,28.8656809605088,-3.9897420038E-05 77.0885833708269,28.8656803085003,-3.9897420038E-05 77.0885897155439,28.8656746760464,-3.9897420038E-05 77.0886045444651,28.8656585979668,-3.9897420038E-05 77.0886062199021,28.8656567822356,-3.9897420038E-05 77.0886081237669,28.8656543144959,-3.9897420038E-05 77.0886200020125,28.8656389423842,-3.9897420038E-05 77.0886250247261,28.8656307846339,-3.9897420038E-05 77.0886252936234,28.8656303484627,-3.9897420038E-05 77.0886263197498,28.8656286811196,-3.9897420038E-05 77.0886337373581,28.8656166364995,-3.9897420038E-05 77.0886399318883,28.8656065595959,-3.9897420038E-05 77.0886409283372,28.8656049363196,-3.9897420038E-05 77.0886536852204,28.8655841781681,-3.9897420038E-05 77.0886578679672,28.8655773738976,-3.9897420038E-05 77.0886688648772,28.8655594764895,-3.9897420038E-05 77.0886699512582,28.8655579332529,-3.9897420038E-05 77.0886746942827,28.8655511937335,-3.9897420038E-05 77.0886871741747,28.8655334582034,-3.9897420038E-05 77.0886879979537,28.8655322252329,-3.9897420038E-05 77.0886949506125,28.8655218218755,-3.9897420038E-05 77.088702182061,28.8655110021319,-3.9897420038E-05 77.0887159210039,28.8654904202476,-3.9897420038E-05 77.0887176495009,28.8654878310994,-3.9897420038E-05 77.0887177772046,28.8654876800133,-3.9897420038E-05 77.0887259007807,28.8654779061813,-3.9897420038E-05 77.088731955916,28.865470622572,-3.9897420038E-05 77.0887426164795,28.8654578009376,-3.9897420038E-05 77.0887495772322,28.8654475180894,-3.9897420038E-05 77.0887671814612,28.8654215123938,-3.9897420038E-05 77.0887708354067,28.8654161155621,-3.9897420038E-05 77.0887789787678,28.8654040844318,-3.9897420038E-05 77.0887919209114,28.8653850152072,-3.9897420038E-05 77.0887948095338,28.8653807569173,-3.9897420038E-05 77.0888018161519,28.8653699362744,-3.9897420038E-05 77.0888081671642,28.8653601219729,-3.9897420038E-05 77.0888098048296,28.8653580787133,-3.9897420038E-05 77.0888262597251,28.8653375328018,-3.9897420038E-05 77.0888302365271,28.8653329435614,-3.9897420038E-05 77.0888447920545,28.8653161442256,-3.9897420038E-05 77.0888449809121,28.8653159445761,-3.9897420038E-05 77.0888607370343,28.8652994438152,-3.9897420038E-05 77.0888646607764,28.8652948239978,-3.9897420038E-05 77.0888764409959,28.8652809537539,-3.9897420038E-05 77.0888970786382,28.8652566603674,-3.9897420038E-05 77.0889011921373,28.8652511610131,-3.9897420038E-05 77.0889062670116,28.865244374729,-3.9897420038E-05 77.0889109569761,28.8652381046557,-3.9897420038E-05 77.0889213423471,28.8652239439307,-3.9897420038E-05 77.0889224332247,28.8652224564521,-3.9897420038E-05 77.0889234611498,28.865221054409,-3.9897420038E-05 77.0889281592081,28.8652050527718,-3.9897420038E-05 77.0889293157363,28.8652017846355,-3.9897420038E-05 77.0889334795974,28.8651900161072,-3.9897420038E-05 77.0889355129646,28.8651875060994,-3.9897420038E-05 77.0889474748471,28.8651727410301,-3.9897420038E-05 77.0889505586223,28.8651689333005,-3.9897420038E-05 77.0889514390586,28.8651681365012,-3.9897420038E-05 77.0889701017898,28.8651512175555,-3.9897420038E-05 77.0889707286172,28.8651506500833,-3.9897420038E-05 77.0889709660382,28.865150434246,-3.9897420038E-05 77.0889832570726,28.8651366548336,-3.9897420038E-05 77.0889894560995,28.8651267164257,-3.9897420038E-05 77.0889971749806,28.8651143471503,-3.9897420038E-05 77.0890030664393,28.8651049357451,-3.9897420038E-05 77.0890048156207,28.8651021397528,-3.9897420038E-05 77.0890171354334,28.8650824580898,-3.9897420038E-05 77.0890264524098,28.8650675734107,-3.9897420038E-05 77.0890276817831,28.865065608392,-3.9897420038E-05 77.0890382829913,28.8650508927853,-3.9897420038E-05 77.0890400285754,28.8650484709111,-3.9897420038E-05 77.0890448795186,28.8650417349889,-3.9897420038E-05 77.0890549753078,28.8650282154807,-3.9897420038E-05 77.0890625287137,28.8650181044028,-3.9897420038E-05 77.0890626995849,28.8650177410768,-3.9897420038E-05 77.0890675936955,28.8650073251288,-3.9897420038E-05 77.0890693716552,28.8650035398824,-3.9897420038E-05 77.0890702206152,28.8650017313457,-3.9897420038E-05 77.0890732603237,28.8649917641595,-3.9897420038E-05 77.0890764115481,28.8649814336471,-3.9897420038E-05 77.0890768836922,28.8649780692833,-3.9897420038E-05 77.0890784727943,28.8649667225371,-3.9897420038E-05 77.0890796401143,28.8649583984122,-3.9897420038E-05 77.0890786013973,28.8649459032317,-3.9897420038E-05 77.089077905322,28.8649375368387,-3.9897420038E-05 77.0890776211363,28.864934119415,-3.9897420038E-05 77.0890759483973,28.8649287702474,-3.9897420038E-05 77.0890729968223,28.8649193327619,-3.9897420038E-05 77.0890717395701,28.8649153154903,-3.9897420038E-05 77.0890697053036,28.8649088376736,-3.9897420038E-05 77.0890662087395,28.8648977103619,-3.9897420038E-05 77.0890662186321,28.8648944943863,-3.9897420038E-05 77.0890663391412,28.8648594478062,-3.9897420038E-05 77.0890663562283,28.8648543531468,-3.9897420038E-05 77.0890663904026,28.8648444812887,-3.9897420038E-05 77.0890669758612,28.8648335815055,-3.9897420038E-05 77.0890670666927,28.8648318799882,-3.9897420038E-05 77.0890677339897,28.86481951431,-3.9897420038E-05 77.0890677978416,28.864815026693,-3.9897420038E-05 77.0890678616934,28.8648105543645,-3.9897420038E-05 77.0890680505511,28.8647973289345,-3.9897420038E-05 77.0890684219711,28.8647936884788,-3.9897420038E-05 77.0890697637596,28.864780505317,-3.9897420038E-05 77.0890761219665,28.8647693555222,-3.9897420038E-05 77.0890773810173,28.8647671467873,-3.9897420038E-05 77.0890792722915,28.8647638282889,-3.9897420038E-05 77.0890833660055,28.8647604513346,-3.9897420038E-05 77.0890956399528,28.8647503213711,-3.9897420038E-05 77.0891061359404,28.8647435467781,-3.9897420038E-05 77.0891082358574,28.8647421914998,-3.9897420038E-05 77.0891188208778,28.8647353575516,-3.9897420038E-05 77.0891276351333,28.8647307638146,-3.9897420038E-05 77.0891368226073,28.8647259722267,-3.9897420038E-05 77.0891469858457,28.8647206761192,-3.9897420038E-05 77.0891584755842,28.8647143997507,-3.9897420038E-05 77.0891605431256,28.8647132702021,-3.9897420038E-05 77.0891658545215,28.8647103671906,-3.9897420038E-05 77.0891830891292,28.864700954886,-3.9897420038E-05 77.0892059391038,28.8646883023242,-3.9897420038E-05 77.0892107549734,28.8646856340357,-3.9897420038E-05 77.0892170070602,28.8646821716458,-3.9897420038E-05 77.0892226961715,28.8646779349396,-3.9897420038E-05 77.0892364270205,28.86466770695,-3.9897420038E-05 77.0892468150894,28.8646599682838,-3.9897420038E-05 77.0892602194845,28.8646499831111,-3.9897420038E-05 77.0892608472113,28.8646494192362,-3.9897420038E-05 77.0892821260703,28.8646303473136,-3.9897420038E-05 77.0892863528838,28.8646265593691,-3.9897420038E-05 77.0892876245252,28.8646254199281,-3.9897420038E-05 77.0892894987124,28.8646237381959,-3.9897420038E-05 77.0893083601936,28.8646016769267,-3.9897420038E-05 77.0893092972872,28.8646005797538,-3.9897420038E-05 77.0893122560568,28.8645971200619,-3.9897420038E-05 77.0893213194244,28.8645867598719,-3.9897420038E-05 77.0893247620292,28.8645828235394,-3.9897420038E-05 77.0893255201576,28.8645819574922,-3.9897420038E-05 77.0893414264667,28.8645637714018,-3.9897420038E-05 77.0893443537599,28.864559853955,-3.9897420038E-05 77.0893488575647,28.8645538195041,-3.9897420038E-05 77.0893632125432,28.8645345910994,-3.9897420038E-05 77.0893635938558,28.8645339777618,-3.9897420038E-05 77.0893769254058,28.8645126116685,-3.9897420038E-05 77.0893784110858,28.8645102302638,-3.9897420038E-05 77.089380969657,28.8645061320532,-3.9897420038E-05 77.089393876727,28.8644854467469,-3.9897420038E-05 77.089395286864,28.8644831849519,-3.9897420038E-05 77.0894094098174,28.8644605553113,-3.9897420038E-05 77.0894155656768,28.8644506906477,-3.9897420038E-05 77.0894162104907,28.8644496546287,-3.9897420038E-05 77.0894350324018,28.8644290808383,-3.9897420038E-05 77.089439526314,28.8644241678419,-3.9897420038E-05 77.0894424329229,28.8644209896378,-3.9897420038E-05 77.0894572663407,28.8644016074491,-3.9897420038E-05 77.0894608420452,28.8643969327731,-3.9897420038E-05 77.089464577829,28.864392051253,-3.9897420038E-05 77.0894713803009,28.8643831695485,-3.9897420038E-05 77.0894737635044,28.8643800560956,-3.9897420038E-05 77.0894792718519,28.8643728642172,-3.9897420038E-05 77.0894853449737,28.8643649339954,-3.9897420038E-05 77.0894882461866,28.8643610812998,-3.9897420038E-05 77.0894953697165,28.8643516231298,-3.9897420038E-05 77.0895038503234,28.8643403627185,-3.9897420038E-05 77.0895121870388,28.864329294762,-3.9897420038E-05 77.0895234663359,28.8643143165534,-3.9897420038E-05 77.089530333559,28.8643051983271,-3.9897420038E-05 77.0895405975215,28.8642915691015,-3.9897420038E-05 77.0895441669308,28.864286831473,-3.9897420038E-05 77.0895476742867,28.8642827458529,-3.9897420038E-05 77.0895569597868,28.8642719315053,-3.9897420038E-05 77.0895636183673,28.8642641748527,-3.9897420038E-05 77.0895718075938,28.864255538663,-3.9897420038E-05 77.0895810328394,28.8642458079985,-3.9897420038E-05 77.0895832433729,28.864243516526,-3.9897420038E-05 77.0895959130219,28.8642303846254,-3.9897420038E-05 77.0896039394712,28.8642220640979,-3.9897420038E-05 77.0896078047573,28.8642180225446,-3.9897420038E-05 77.0896150856686,28.8642104115821,-3.9897420038E-05 77.0896218107989,28.8642033815817,-3.9897420038E-05 77.0896301142394,28.8641943020263,-3.9897420038E-05 77.0896359301551,28.8641879411215,-3.9897420038E-05 77.0896413332819,28.8641832070902,-3.9897420038E-05 77.0896652669395,28.8641622277055,-3.9897420038E-05 77.0896702806599,28.86415783092,-3.9897420038E-05 77.0896855682354,28.8641444337195,-3.9897420038E-05 77.0896966928491,28.8641346805719,-3.9897420038E-05 77.0897106845015,28.8641224165172,-3.9897420038E-05 77.0897111278672,28.8641220289094,-3.9897420038E-05 77.0897234638678,28.8641135474032,-3.9897420038E-05 77.0897346352462,28.8641058644949,-3.9897420038E-05 77.0897512825966,28.8640944179239,-3.9897420038E-05 77.0897631707347,28.8640862448852,-3.9897420038E-05 77.0897638982863,28.8640857304729,-3.9897420038E-05 77.0897809440363,28.8640736768596,-3.9897420038E-05 77.0897863651496,28.864069843949,-3.9897420038E-05 77.0897869236286,28.8640694626365,-3.9897420038E-05 77.0897969915389,28.8640625999099,-3.9897420038E-05 77.0898093725055,28.8640541597725,-3.9897420038E-05 77.0898198280236,28.8640475479568,-3.9897420038E-05 77.0898229216915,28.8640455919314,-3.9897420038E-05 77.0898332800828,28.8640390421689,-3.9897420038E-05 77.0898399854279,28.8640347515035,-3.9897420038E-05 77.0898485442759,28.8640292791288,-3.9897420038E-05 77.0898495623084,28.864028626221,-3.9897420038E-05 77.0898662258466,28.8640179674561,-3.9897420038E-05 77.0898750589878,28.8640123161164,-3.9897420038E-05 77.0898843939506,28.8640063455173,-3.9897420038E-05 77.0898911388659,28.8640020314695,-3.9897420038E-05 77.0899025143905,28.8639956327931,-3.9897420038E-05 77.0899139159954,28.8639892206269,-3.9897420038E-05 77.0899333719286,28.8639782794749,-3.9897420038E-05 77.0899378235727,28.8639757757623,-3.9897420038E-05 77.0899381419327,28.8639755851061,-3.9897420038E-05 77.0899623480849,28.8639609180628,-3.9897420038E-05 77.0899658536422,28.8639587929648,-3.9897420038E-05 77.0899718512209,28.8639551597037,-3.9897420038E-05 77.0899885219537,28.8639461763758,-3.9897420038E-05 77.0900042133248,28.8639377200506,-3.9897420038E-05 77.0900118134954,28.8639334662573,-3.9897420038E-05 77.0900140698944,28.8639322036092,-3.9897420038E-05 77.0900290517004,28.8639238165318,-3.9897420038E-05 77.090030835056,28.8639228182843,-3.9897420038E-05 77.0900393192601,28.8639180707632,-3.9897420038E-05 77.0900463996226,28.8639129311377,-3.9897420038E-05 77.0900570934611,28.8639051699885,-3.9897420038E-05 77.0900793588763,28.8638890127686,-3.9897420038E-05 77.0900826458983,28.8638866268672,-3.9897420038E-05 77.0900880849981,28.8638826788434,-3.9897420038E-05 77.0900994191538,28.8638744527447,-3.9897420038E-05 77.0901260094088,28.8638551227166,-3.9897420038E-05 77.0901301399949,28.8638521207797,-3.9897420038E-05 77.0901352256611,28.8638484236667,-3.9897420038E-05 77.0901599345343,28.8638304893864,-3.9897420038E-05 77.0901709017667,28.8638225285877,-3.9897420038E-05 77.09017095033,28.8638224944135,-3.9897420038E-05 77.0901721886966,28.8638215923934,-3.9897420038E-05 77.0901725466267,28.8638213333887,-3.9897420038E-05 77.0901730394552,28.8638209763578,-3.9897420038E-05 77.090205689342,28.8637930847839,-3.9897420038E-05 77.0902058719045,28.8637929274026,-3.9897420038E-05 77.0902059510448,28.8637928428663,-3.9897420038E-05 77.090206596758,28.863792149489,-3.9897420038E-05 77.0902258476457,28.8637714390016,-3.9897420038E-05 77.0902289404142,28.8637681133087,-3.9897420038E-05 77.090231266061,28.8637656122941,-3.9897420038E-05 77.0902452244385,28.8637492185525,-3.9897420038E-05 77.0902562240465,28.8637362979927,-3.9897420038E-05 77.0902601972513,28.8637322177685,-3.9897420038E-05 77.0902661813402,28.863726070003,-3.9897420038E-05 77.0902683343172,28.8637238585701,-3.9897420038E-05 77.0902882003411,28.8637034529528,-3.9897420038E-05 77.0902936268504,28.8636979553972,-3.9897420038E-05 77.0903000588016,28.8636914380103,-3.9897420038E-05 77.0903082579208,28.8636831309726,-3.9897420038E-05 77.0903110611076,28.8636802936115,-3.9897420038E-05 77.0903131187564,28.8636782080837,-3.9897420038E-05 77.0903271400864,28.8636694046202,-3.9897420038E-05 77.0903335558499,28.8636653765568,-3.9897420038E-05 77.0903355442509,28.8636646436093,-3.9897420038E-05 77.0903523489827,28.8636584526763,-3.9897420038E-05 77.0903630698008,28.8636545046526,-3.9897420038E-05 77.0903646813859,28.8636539111,-3.9897420038E-05 77.0903668604432,28.8636534263654,-3.9897420038E-05 77.0903926673886,28.8636476877915,-3.9897420038E-05 77.0903927204487,28.8636476832948,-3.9897420038E-05 77.0904156612547,28.863646024945,-3.9897420038E-05 77.0904252372359,28.8636453333663,-3.9897420038E-05 77.0904514551715,28.8636447389144,-3.9897420038E-05 77.0904655565412,28.8636444169571,-3.9897420038E-05 77.0904660439737,28.8636444061653,-3.9897420038E-05 77.0904783017332,28.8636434339982,-3.9897420038E-05 77.0904841922926,28.8636429654514,-3.9897420038E-05 77.0904884865554,28.8636424339521,-3.9897420038E-05 77.0905019619969,28.8636407594144,-3.9897420038E-05 77.0905309894146,28.8636371549316,-3.9897420038E-05 77.0905439666317,28.8636355442458,-3.9897420038E-05 77.090570155789,28.8636322922973,-3.9897420038E-05 77.0905726082403,28.8636320395879,-3.9897420038E-05 77.0905875621672,28.8636304990492,-3.9897420038E-05 77.0906024864166,28.8636289612085,-3.9897420038E-05 77.0906226006535,28.8636268882711,-3.9897420038E-05 77.0906230665023,28.8636268406071,-3.9897420038E-05 77.0906708888514,28.86362438276,-3.9897420038E-05 77.0906723223708,28.8636243099148,-3.9897420038E-05 77.0906860649109,28.8636233044728,-3.9897420038E-05 77.0906903555764,28.8636229906094,-3.9897420038E-05 77.0906989081291,28.8636223655806,-3.9897420038E-05 77.0907172327151,28.8636210237921,-3.9897420038E-05 77.0907447942378,28.8636189733379,-3.9897420038E-05 77.0907523719254,28.8636184103622,-3.9897420038E-05 77.0907586042272,28.8636179472114,-3.9897420038E-05 77.0907622932462,28.8636177565551,-3.9897420038E-05 77.0907908422246,28.8636162834656,-3.9897420038E-05 77.0908341643662,28.8636140468516,-3.9897420038E-05 77.0908348415556,28.86361396951,-3.9897420038E-05 77.0908368983052,28.8636137338876,-3.9897420038E-05 77.0908517353203,28.8636120395648,-3.9897420038E-05 77.090852022204,28.8636120062899,-3.9897420038E-05 77.090866657771,28.8636103335509,-3.9897420038E-05 77.0908961897084,28.8636067434573,-3.9897420038E-05 77.0909018383501,28.8636060563753,-3.9897420038E-05 77.0909089591821,28.8636051894288,-3.9897420038E-05 77.0909422269032,28.8635967771704,-3.9897420038E-05 77.0909471129199,28.8635948571178,-3.9897420038E-05 77.0909488701952,28.8635941655392,-3.9897420038E-05 77.0909759973454,28.8635834995797,-3.9897420038E-05 77.0909979884674,28.8635753885942,-3.9897420038E-05 77.0910040238176,28.8635731636714,-3.9897420038E-05 77.0910053916865,28.8635726582525,-3.9897420038E-05 77.0910066282543,28.8635721555314,-3.9897420038E-05 77.0910276633969,28.8635635822944,-3.9897420038E-05 77.0910358885964,28.8635602314204,-3.9897420038E-05 77.0910484818029,28.8635503424752,-3.9897420038E-05 77.0910485987148,28.863550249845,-3.9897420038E-05 77.0910486571707,28.8635502057783,-3.9897420038E-05 77.0910496203447,28.8635494494484,-3.9897420038E-05 77.0910519738705,28.8635476013416,-3.9897420038E-05 77.091067470988,28.8635305744773,-3.9897420038E-05 77.091074876905,28.8635153966192,-3.9897420038E-05 77.091074907482,28.8635153633442,-3.9897420038E-05 77.0910827666573,28.8635063647278,-3.9897420038E-05 77.0910840517885,28.8635059222614,-3.9897420038E-05 77.0910866121584,28.8635050418251,-3.9897420038E-05 77.0910985983226,28.8635009148362,-3.9897420038E-05 77.0911019357067,28.8635009166348,-3.9897420038E-05 77.0911279701807,28.8635009283261,-3.9897420038E-05 77.0911378933001,28.863500799723,-3.9897420038E-05 77.0911469890433,28.8635006819118,-3.9897420038E-05 77.0911502760654,28.8635006396437,-3.9897420038E-05 77.0911627334743,28.863498884167,-3.9897420038E-05 77.0911651400601,28.863498543324,-3.9897420038E-05 77.0911806920363,28.8634963507769,-3.9897420038E-05 77.0911877094462,28.8634932939812,-3.9897420038E-05 77.0912004537389,28.8634877415669,-3.9897420038E-05 77.0912010158152,28.8634871534103,-3.9897420038E-05 77.0912119066052,28.8634757913755,-3.9897420038E-05 77.0912156765632,28.8634676875846,-3.9897420038E-05 77.0912163645446,28.8634662099985,-3.9897420038E-05 77.0912190454236,28.8634604489415,-3.9897420038E-05 77.0912247821989,28.8634195333856,-3.9897420038E-05 77.0912257921375,28.863412335212,-3.9897420038E-05 77.0912267697007,28.8634053690634,-3.9897420038E-05 77.0912285602508,28.8633809632617,-3.9897420038E-05 77.0912286429885,28.8633727074853,-3.9897420038E-05 77.0912288066651,28.8633567022509,-3.9897420038E-05 77.0912289811336,28.8633396286218,-3.9897420038E-05 77.0912288507319,28.8633308647285,-3.9897420038E-05 77.0912287886786,28.8633266343176,-3.9897420038E-05 77.0912285530563,28.8633106551635,-3.9897420038E-05 77.0912282715685,28.8633029470742,-3.9897420038E-05 77.0912280359461,28.8632965061298,-3.9897420038E-05 77.0912280071678,28.8632957120284,-3.9897420038E-05 77.0912274900576,28.8632815171292,-3.9897420038E-05 77.0912272715223,28.8632624416093,-3.9897420038E-05 77.0912268686261,28.8632274678742,-3.9897420038E-05 77.0912268146668,28.8632228309697,-3.9897420038E-05 77.0912267706,28.8632188640602,-3.9897420038E-05 77.091227083564,28.8631881450178,-3.9897420038E-05 77.09122708896,28.8631875811428,-3.9897420038E-05 77.0912274657759,28.8631506360938,-3.9897420038E-05 77.0912277913305,28.8631426869863,-3.9897420038E-05 77.0912283138366,28.8631298941302,-3.9897420038E-05 77.0912285953244,28.8631292052495,-3.9897420038E-05 77.0912321467471,28.8631205654626,-3.9897420038E-05 77.0912330226868,28.86311843317,-3.9897420038E-05 77.091234260154,28.8631154258371,-3.9897420038E-05 77.0912380705815,28.8631133600944,-3.9897420038E-05 77.0912489955457,28.8631074479512,-3.9897420038E-05 77.0912506727813,28.8631065414346,-3.9897420038E-05 77.0912508157735,28.8631065252468,-3.9897420038E-05 77.0912616427116,28.8631052688939,-3.9897420038E-05 77.0912632812764,28.863105079137,-3.9897420038E-05 77.0912646986079,28.8631049145611,-3.9897420038E-05 77.0912699695344,28.8631043021227,-3.9897420038E-05 77.0912743618233,28.8631037913078,-3.9897420038E-05 77.0913075441089,28.8631037571336,-3.9897420038E-05 77.0913401948951,28.8631028910864,-3.9897420038E-05 77.0913420753774,28.8631028407244,-3.9897420038E-05 77.0913470648161,28.8631027085241,-3.9897420038E-05 77.0913507097684,28.8631026104979,-3.9897420038E-05 77.0913858444821,28.8631026069007,-3.9897420038E-05 77.0913870900432,28.8631026060013,-3.9897420038E-05 77.0914024828393,28.863102605102,-3.9897420038E-05 77.0914261997603,28.8631026015047,-3.9897420038E-05 77.0914301990454,28.8631026015047,-3.9897420038E-05 77.0914422769405,28.8631025988068,-3.9897420038E-05 77.0914774116542,28.8630999718871,-3.9897420038E-05 77.0914978028823,28.8630984457375,-3.9897420038E-05 77.0915256153158,28.8630959015555,-3.9897420038E-05 77.0915339313468,28.8630951407291,-3.9897420038E-05 77.0915584198862,28.8630929005178,-3.9897420038E-05 77.0915948757039,28.8630905353008,-3.9897420038E-05 77.091605842037,28.8630898239371,-3.9897420038E-05 77.0916073178244,28.8630897286089,-3.9897420038E-05 77.0916628050954,28.8630894848927,-3.9897420038E-05 77.0916697316737,28.8630896782469,-3.9897420038E-05 77.0916799749519,28.8630899669293,-3.9897420038E-05 77.0916937300826,28.8630903509398,-3.9897420038E-05 77.0917573822983,28.8630921342954,-3.9897420038E-05 77.091765401553,28.8630923600253,-3.9897420038E-05 77.091778970524,28.8630924760378,-3.9897420038E-05 77.0917919882107,28.8630925884531,-3.9897420038E-05 77.0918278621671,28.8630928960212,-3.9897420038E-05 77.0918289206691,28.863092912209,-3.9897420038E-05 77.0918382016727,28.8630930498053,-3.9897420038E-05 77.0918747015572,28.8630935929958,-3.9897420038E-05 77.0918782619732,28.8630936460558,-3.9897420038E-05 77.0919082903363,28.863094612827,-3.9897420038E-05 77.0919225320002,28.8630950705819,-3.9897420038E-05 77.0919323678854,28.8630953871433,-3.9897420038E-05 77.0919566774597,28.8630968881118,-3.9897420038E-05 77.0919756882284,28.863098061727,-3.9897420038E-05 77.0919833765326,28.8630985374684,-3.9897420038E-05 77.0919851544922,28.8630985590522,-3.9897420038E-05 77.0920306637851,28.8630990905515,-3.9897420038E-05 77.0920341387655,28.8630991319203,-3.9897420038E-05 77.0920788314739,28.8631017228671,-3.9897420038E-05 77.0920793521813,28.8631017543433,-3.9897420038E-05 77.0920835052506,28.8631018469736,-3.9897420038E-05 77.0921169897083,28.8631025916122,-3.9897420038E-05 77.0921376336458,28.8631030511658,-3.9897420038E-05 77.0921496692728,28.8631031527892,-3.9897420038E-05 77.0921545939603,28.8631031959566,-3.9897420038E-05 77.0921765104386,28.8631033848142,-3.9897420038E-05 77.0922026303481,28.8631036087454,-3.9897420038E-05 77.0922127881906,28.8631036950803,-3.9897420038E-05 77.0922178198974,28.8631037373485,-3.9897420038E-05 77.0922542847085,28.8631040503125,-3.9897420038E-05 77.092255272164,28.8631040584065,-3.9897420038E-05 77.0922648193669,28.8631041411441,-3.9897420038E-05 77.0922798470383,28.8631032040505,-3.9897420038E-05 77.0922848841411,28.8631028892878,-3.9897420038E-05 77.092312083237,28.8631011931664,-3.9897420038E-05 77.09235057512,28.8630998756596,-3.9897420038E-05 77.0923541292407,28.8630997551505,-3.9897420038E-05 77.0923586977967,28.8630995977691,-3.9897420038E-05 77.0923719879779,28.8630996984932,-3.9897420038E-05 77.092382516341,28.8630997785328,-3.9897420038E-05 77.0924170116368,28.8631000384369,-3.9897420038E-05 77.0924216539372,28.8631000726111,-3.9897420038E-05 77.092437202316,28.8631001904223,-3.9897420038E-05 77.0924531661817,28.863100935061,-3.9897420038E-05 77.0924669267083,28.8631015771769,-3.9897420038E-05 77.0924960260717,28.8631029333546,-3.9897420038E-05 77.0925000910074,28.8631031231115,-3.9897420038E-05 77.0925105483241,28.8631034585587,-3.9897420038E-05 77.0925374713282,28.8631043219078,-3.9897420038E-05 77.0925526132135,28.8631048084411,-3.9897420038E-05 77.0925611756587,28.8631050836336,-3.9897420038E-05 77.0925633070519,28.8631051843577,-3.9897420038E-05 77.0926046569803,28.8631071403831,-3.9897420038E-05 77.0926147302865,28.8631076152251,-3.9897420038E-05 77.0926181674954,28.8631077051573,-3.9897420038E-05 77.0926297111932,28.8631080019336,-3.9897420038E-05 77.0926377547296,28.8631082087777,-3.9897420038E-05 77.0926611362034,28.8631088113235,-3.9897420038E-05 77.0926820220586,28.8631089255373,-3.9897420038E-05 77.0926919919428,28.863108980396,-3.9897420038E-05 77.0927124461235,28.863109091912,-3.9897420038E-05 77.0927419852554,28.8631093446214,-3.9897420038E-05 77.0927446220676,28.8631093671045,-3.9897420038E-05 77.0927473065439,28.8631093895875,-3.9897420038E-05 77.0927645708293,28.863109538875,-3.9897420038E-05 77.0928004582755,28.8631098464431,-3.9897420038E-05 77.0928014547243,28.8631098536377,-3.9897420038E-05 77.0928069963468,28.8631099013018,-3.9897420038E-05 77.0928